[
    {
        "id": "1",
        "province_id": "1",
        "name": "Bangued",
        "zip_code": "2800"
    },
    {
        "id": "2",
        "province_id": "1",
        "name": "Boliney",
        "zip_code": "2815"
    },
    {
        "id": "5",
        "province_id": "1",
        "name": "Bucay",
        "zip_code": "2805"
    },
    {
        "id": "6",
        "province_id": "1",
        "name": "Bucloc",
        "zip_code": "2817"
    },
    {
        "id": "7",
        "province_id": "1",
        "name": "Daguioman",
        "zip_code": "2816"
    },
    {
        "id": "8",
        "province_id": "1",
        "name": "Danglas",
        "zip_code": "2825"
    },
    {
        "id": "9",
        "province_id": "1",
        "name": "Dolores",
        "zip_code": "2801"
    },
    {
        "id": "10",
        "province_id": "1",
        "name": "La Paz",
        "zip_code": "2826"
    },
    {
        "id": "11",
        "province_id": "1",
        "name": "Lacub",
        "zip_code": "2821"
    },
    {
        "id": "12",
        "province_id": "1",
        "name": "Lagangilang",
        "zip_code": "2802"
    },
    {
        "id": "13",
        "province_id": "1",
        "name": "Lagayan",
        "zip_code": "2824"
    },
    {
        "id": "14",
        "province_id": "1",
        "name": "Langiden",
        "zip_code": "2807"
    },
    {
        "id": "15",
        "province_id": "1",
        "name": "Licuan-Baay",
        "zip_code": "2819"
    },
    {
        "id": "16",
        "province_id": "1",
        "name": "Luba",
        "zip_code": "2813"
    },
    {
        "id": "17",
        "province_id": "1",
        "name": "Malibcong",
        "zip_code": "2820"
    },
    {
        "id": "18",
        "province_id": "1",
        "name": "Manabo",
        "zip_code": "2810"
    },
    {
        "id": "19",
        "province_id": "1",
        "name": "Pe√±arrubia",
        "zip_code": "2804"
    },
    {
        "id": "20",
        "province_id": "1",
        "name": "Pidigan",
        "zip_code": "2806"
    },
    {
        "id": "21",
        "province_id": "1",
        "name": "Pilar",
        "zip_code": "2812"
    },
    {
        "id": "22",
        "province_id": "1",
        "name": "Sallapadan",
        "zip_code": "2818"
    },
    {
        "id": "23",
        "province_id": "1",
        "name": "San Isidro",
        "zip_code": "2809"
    },
    {
        "id": "24",
        "province_id": "1",
        "name": "San Juan",
        "zip_code": "2823"
    },
    {
        "id": "25",
        "province_id": "1",
        "name": "San Quintin",
        "zip_code": "2808"
    },
    {
        "id": "26",
        "province_id": "1",
        "name": "Tayum",
        "zip_code": "2803"
    },
    {
        "id": "27",
        "province_id": "1",
        "name": "Tineg",
        "zip_code": "2822"
    },
    {
        "id": "28",
        "province_id": "1",
        "name": "Tubo",
        "zip_code": "2814"
    },
    {
        "id": "29",
        "province_id": "1",
        "name": "Villaviciosa",
        "zip_code": "2811"
    },
    {
        "id": "30",
        "province_id": "2",
        "name": "Buenavista",
        "zip_code": "8601"
    },
    {
        "id": "31",
        "province_id": "2",
        "name": "Butuan City",
        "zip_code": "8600"
    },
    {
        "id": "32",
        "province_id": "2",
        "name": "Cabadbaran City",
        "zip_code": "8605"
    },
    {
        "id": "33",
        "province_id": "2",
        "name": "Carmen",
        "zip_code": "8603"
    },
    {
        "id": "34",
        "province_id": "2",
        "name": "Jabonga",
        "zip_code": "8607"
    },
    {
        "id": "35",
        "province_id": "2",
        "name": "Kitcharao",
        "zip_code": "8609"
    },
    {
        "id": "36",
        "province_id": "2",
        "name": "Las Nieves",
        "zip_code": "8610"
    },
    {
        "id": "37",
        "province_id": "2",
        "name": "Magallanes",
        "zip_code": "8604"
    },
    {
        "id": "38",
        "province_id": "2",
        "name": "Nasipit",
        "zip_code": "8602"
    },
    {
        "id": "39",
        "province_id": "2",
        "name": "Remedios T. Romualdez",
        "zip_code": "8611"
    },
    {
        "id": "40",
        "province_id": "3",
        "name": "Bayugan City",
        "zip_code": "8502"
    },
    {
        "id": "41",
        "province_id": "3",
        "name": "Bunawan",
        "zip_code": "8506"
    },
    {
        "id": "42",
        "province_id": "3",
        "name": "Esperanza",
        "zip_code": "8513"
    },
    {
        "id": "43",
        "province_id": "3",
        "name": "La Paz",
        "zip_code": "8508"
    },
    {
        "id": "44",
        "province_id": "3",
        "name": "Loreto",
        "zip_code": "8507"
    },
    {
        "id": "45",
        "province_id": "3",
        "name": "Prosperidad",
        "zip_code": "8500"
    },
    {
        "id": "46",
        "province_id": "3",
        "name": "Rosario",
        "zip_code": "8504"
    },
    {
        "id": "47",
        "province_id": "3",
        "name": "San Francisco",
        "zip_code": "8501"
    },
    {
        "id": "48",
        "province_id": "3",
        "name": "San Luis",
        "zip_code": "8511"
    },
    {
        "id": "49",
        "province_id": "3",
        "name": "Santa Josefa",
        "zip_code": "8512"
    },
    {
        "id": "50",
        "province_id": "3",
        "name": "Sibagat",
        "zip_code": "8503"
    },
    {
        "id": "51",
        "province_id": "3",
        "name": "Talacogon",
        "zip_code": "8510"
    },
    {
        "id": "52",
        "province_id": "3",
        "name": "Trento",
        "zip_code": "8505"
    },
    {
        "id": "53",
        "province_id": "3",
        "name": "Veruela",
        "zip_code": "8509"
    },
    {
        "id": "54",
        "province_id": "2",
        "name": "Santiago",
        "zip_code": "8608"
    },
    {
        "id": "55",
        "province_id": "2",
        "name": "Tubay",
        "zip_code": "8606"
    },
    {
        "id": "56",
        "province_id": "4",
        "name": "Altavas",
        "zip_code": "5616"
    },
    {
        "id": "57",
        "province_id": "4",
        "name": "Balete",
        "zip_code": "5614"
    },
    {
        "id": "58",
        "province_id": "4",
        "name": "Banga",
        "zip_code": "5601"
    },
    {
        "id": "59",
        "province_id": "4",
        "name": "Batan",
        "zip_code": "5615"
    },
    {
        "id": "60",
        "province_id": "4",
        "name": "Buruanga",
        "zip_code": "5609"
    },
    {
        "id": "61",
        "province_id": "4",
        "name": "Ibajay",
        "zip_code": "5613"
    },
    {
        "id": "62",
        "province_id": "4",
        "name": "Kalibo",
        "zip_code": "5600"
    },
    {
        "id": "63",
        "province_id": "4",
        "name": "Lezo",
        "zip_code": "5605"
    },
    {
        "id": "64",
        "province_id": "4",
        "name": "Libacao",
        "zip_code": "5602"
    },
    {
        "id": "65",
        "province_id": "4",
        "name": "Madalag",
        "zip_code": "5603"
    },
    {
        "id": "66",
        "province_id": "4",
        "name": "Makato",
        "zip_code": "5611"
    },
    {
        "id": "67",
        "province_id": "4",
        "name": "Malay",
        "zip_code": "5608"
    },
    {
        "id": "68",
        "province_id": "4",
        "name": "Malinao",
        "zip_code": "5606"
    },
    {
        "id": "69",
        "province_id": "4",
        "name": "Nabas",
        "zip_code": "5607"
    },
    {
        "id": "70",
        "province_id": "4",
        "name": "New Washington",
        "zip_code": "5610"
    },
    {
        "id": "71",
        "province_id": "4",
        "name": "Numancia",
        "zip_code": "5604"
    },
    {
        "id": "72",
        "province_id": "4",
        "name": "Tangalan",
        "zip_code": "5612"
    },
    {
        "id": "73",
        "province_id": "5",
        "name": "Bacacay",
        "zip_code": "4509"
    },
    {
        "id": "74",
        "province_id": "5",
        "name": "Camalig",
        "zip_code": "4502"
    },
    {
        "id": "75",
        "province_id": "5",
        "name": "Daraga",
        "zip_code": "4501"
    },
    {
        "id": "76",
        "province_id": "5",
        "name": "Guinobatan",
        "zip_code": "4503"
    },
    {
        "id": "77",
        "province_id": "5",
        "name": "Jovellar",
        "zip_code": "4515"
    },
    {
        "id": "78",
        "province_id": "5",
        "name": "Legazpi City",
        "zip_code": "4500"
    },
    {
        "id": "79",
        "province_id": "5",
        "name": "Libon",
        "zip_code": "4507"
    },
    {
        "id": "80",
        "province_id": "5",
        "name": "Ligao City",
        "zip_code": "4504"
    },
    {
        "id": "81",
        "province_id": "5",
        "name": "Malilipot",
        "zip_code": "4510"
    },
    {
        "id": "82",
        "province_id": "5",
        "name": "Malinao",
        "zip_code": "4512"
    },
    {
        "id": "83",
        "province_id": "5",
        "name": "Manito",
        "zip_code": "4514"
    },
    {
        "id": "84",
        "province_id": "5",
        "name": "Oas",
        "zip_code": "4504"
    },
    {
        "id": "85",
        "province_id": "5",
        "name": "Pio Duran",
        "zip_code": "4516"
    },
    {
        "id": "86",
        "province_id": "5",
        "name": "Polangui",
        "zip_code": "4506"
    },
    {
        "id": "87",
        "province_id": "5",
        "name": "Rapu-Rapu",
        "zip_code": "4517"
    },
    {
        "id": "88",
        "province_id": "5",
        "name": "Santo Domingo",
        "zip_code": "4508"
    },
    {
        "id": "89",
        "province_id": "5",
        "name": "Tiwi",
        "zip_code": "4513"
    },
    {
        "id": "93",
        "province_id": "6",
        "name": "Anini-y",
        "zip_code": "5717"
    },
    {
        "id": "94",
        "province_id": "6",
        "name": "Barbaza",
        "zip_code": "5706"
    },
    {
        "id": "95",
        "province_id": "6",
        "name": "Belison",
        "zip_code": "5701"
    },
    {
        "id": "96",
        "province_id": "6",
        "name": "Bugasong",
        "zip_code": "5704"
    },
    {
        "id": "97",
        "province_id": "6",
        "name": "Caluya",
        "zip_code": "5711"
    },
    {
        "id": "98",
        "province_id": "6",
        "name": "Culasi",
        "zip_code": "5708"
    },
    {
        "id": "99",
        "province_id": "6",
        "name": "Hamtic",
        "zip_code": "5715"
    },
    {
        "id": "100",
        "province_id": "6",
        "name": "Laua-an",
        "zip_code": "5705"
    },
    {
        "id": "101",
        "province_id": "6",
        "name": "Libertad",
        "zip_code": "5710"
    },
    {
        "id": "102",
        "province_id": "6",
        "name": "Pandan",
        "zip_code": "5712"
    },
    {
        "id": "103",
        "province_id": "6",
        "name": "Patnongon",
        "zip_code": "5702"
    },
    {
        "id": "104",
        "province_id": "6",
        "name": "San Jose de Buenavista",
        "zip_code": "5700"
    },
    {
        "id": "105",
        "province_id": "6",
        "name": "San Remigio",
        "zip_code": "5714"
    },
    {
        "id": "106",
        "province_id": "6",
        "name": "Sebaste",
        "zip_code": "5709"
    },
    {
        "id": "107",
        "province_id": "6",
        "name": "Sibalom",
        "zip_code": "5713"
    },
    {
        "id": "108",
        "province_id": "6",
        "name": "Tibiao",
        "zip_code": "5707"
    },
    {
        "id": "109",
        "province_id": "6",
        "name": "Tobias Fornier (Dao)",
        "zip_code": "5716"
    },
    {
        "id": "110",
        "province_id": "6",
        "name": "Valderrama",
        "zip_code": "5703"
    },
    {
        "id": "111",
        "province_id": "7",
        "name": "Calanasan (Bayag)",
        "zip_code": "3814"
    },
    {
        "id": "112",
        "province_id": "7",
        "name": "Conner",
        "zip_code": "3807"
    },
    {
        "id": "113",
        "province_id": "7",
        "name": "Flora",
        "zip_code": "3807"
    },
    {
        "id": "114",
        "province_id": "7",
        "name": "Kabugao",
        "zip_code": "3809"
    },
    {
        "id": "115",
        "province_id": "7",
        "name": "Luna",
        "zip_code": "3813"
    },
    {
        "id": "116",
        "province_id": "7",
        "name": "Pudtol",
        "zip_code": "3812"
    },
    {
        "id": "117",
        "province_id": "7",
        "name": "Santa Marcela",
        "zip_code": "3811"
    },
    {
        "id": "118",
        "province_id": "8",
        "name": "Baler",
        "zip_code": "3200"
    },
    {
        "id": "119",
        "province_id": "8",
        "name": "Casiguran",
        "zip_code": "3204"
    },
    {
        "id": "120",
        "province_id": "8",
        "name": "Dilasag",
        "zip_code": "3205"
    },
    {
        "id": "121",
        "province_id": "8",
        "name": "Dinalungan",
        "zip_code": "3206"
    },
    {
        "id": "122",
        "province_id": "8",
        "name": "Dingalan",
        "zip_code": "3207"
    },
    {
        "id": "123",
        "province_id": "8",
        "name": "Dipaculao",
        "zip_code": "3203"
    },
    {
        "id": "124",
        "province_id": "8",
        "name": "Maria Aurora",
        "zip_code": "3202"
    },
    {
        "id": "125",
        "province_id": "8",
        "name": "San Luis",
        "zip_code": "3201"
    },
    {
        "id": "126",
        "province_id": "9",
        "name": "Akbar ",
        "zip_code": ""
    },
    {
        "id": "127",
        "province_id": "9",
        "name": "Al-Barka ",
        "zip_code": ""
    },
    {
        "id": "128",
        "province_id": "9",
        "name": "Hadji Mohammad Ajul ",
        "zip_code": ""
    },
    {
        "id": "129",
        "province_id": "9",
        "name": "Isabela City",
        "zip_code": "7300"
    },
    {
        "id": "130",
        "province_id": "9",
        "name": "Lantawan",
        "zip_code": "7301"
    },
    {
        "id": "131",
        "province_id": "9",
        "name": "Lamitan City",
        "zip_code": "7302"
    },
    {
        "id": "132",
        "province_id": "9",
        "name": "Maluso",
        "zip_code": "7303"
    },
    {
        "id": "133",
        "province_id": "9",
        "name": "Sumisip",
        "zip_code": "7305"
    },
    {
        "id": "134",
        "province_id": "9",
        "name": "Tipo-Tipo",
        "zip_code": "7304"
    },
    {
        "id": "135",
        "province_id": "9",
        "name": "Tuburan",
        "zip_code": "7306"
    },
    {
        "id": "136",
        "province_id": "9",
        "name": "Ungkaya Pukan",
        "zip_code": ""
    },
    {
        "id": "137",
        "province_id": "10",
        "name": "Abucay",
        "zip_code": "2114"
    },
    {
        "id": "138",
        "province_id": "10",
        "name": "Bagac",
        "zip_code": "2107"
    },
    {
        "id": "139",
        "province_id": "10",
        "name": "Balanga City",
        "zip_code": "2100"
    },
    {
        "id": "140",
        "province_id": "10",
        "name": "Dinalupihan",
        "zip_code": "2110"
    },
    {
        "id": "141",
        "province_id": "10",
        "name": "Hermosa",
        "zip_code": "2111"
    },
    {
        "id": "142",
        "province_id": "10",
        "name": "Limay",
        "zip_code": "2103"
    },
    {
        "id": "143",
        "province_id": "10",
        "name": "Mariveles",
        "zip_code": "2105"
    },
    {
        "id": "144",
        "province_id": "10",
        "name": "Morong",
        "zip_code": "2108"
    },
    {
        "id": "145",
        "province_id": "10",
        "name": "Orani",
        "zip_code": "2112"
    },
    {
        "id": "146",
        "province_id": "10",
        "name": "Orion",
        "zip_code": "2102"
    },
    {
        "id": "147",
        "province_id": "10",
        "name": "Pilar",
        "zip_code": "2101"
    },
    {
        "id": "148",
        "province_id": "10",
        "name": "Samal",
        "zip_code": "2113"
    },
    {
        "id": "149",
        "province_id": "11",
        "name": "Basco",
        "zip_code": "3900"
    },
    {
        "id": "150",
        "province_id": "11",
        "name": "Itbayat",
        "zip_code": "3905"
    },
    {
        "id": "151",
        "province_id": "11",
        "name": "Ivana",
        "zip_code": "3902"
    },
    {
        "id": "152",
        "province_id": "11",
        "name": "Mahatao",
        "zip_code": "3901"
    },
    {
        "id": "153",
        "province_id": "11",
        "name": "Sabtang",
        "zip_code": "3904"
    },
    {
        "id": "154",
        "province_id": "11",
        "name": "Uyugan",
        "zip_code": "3903"
    },
    {
        "id": "155",
        "province_id": "12",
        "name": "Agoncillo",
        "zip_code": "4211"
    },
    {
        "id": "156",
        "province_id": "12",
        "name": "Alitagtag",
        "zip_code": "4205"
    },
    {
        "id": "157",
        "province_id": "12",
        "name": "Balayan",
        "zip_code": "4213"
    },
    {
        "id": "158",
        "province_id": "12",
        "name": "Balete",
        "zip_code": "4219"
    },
    {
        "id": "159",
        "province_id": "12",
        "name": "Batangas City",
        "zip_code": "4200"
    },
    {
        "id": "160",
        "province_id": "12",
        "name": "Bauan",
        "zip_code": "4201"
    },
    {
        "id": "161",
        "province_id": "12",
        "name": "Calaca",
        "zip_code": "4212"
    },
    {
        "id": "162",
        "province_id": "12",
        "name": "Calatagan",
        "zip_code": "4215"
    },
    {
        "id": "163",
        "province_id": "12",
        "name": "Cuenca",
        "zip_code": "4222"
    },
    {
        "id": "164",
        "province_id": "12",
        "name": "Ibaan",
        "zip_code": "4230"
    },
    {
        "id": "165",
        "province_id": "12",
        "name": "Laurel",
        "zip_code": "4221"
    },
    {
        "id": "166",
        "province_id": "12",
        "name": "Lemery",
        "zip_code": "4209"
    },
    {
        "id": "167",
        "province_id": "12",
        "name": "Lian",
        "zip_code": "4216"
    },
    {
        "id": "168",
        "province_id": "12",
        "name": "Lipa City",
        "zip_code": "4217"
    },
    {
        "id": "169",
        "province_id": "12",
        "name": "Lobo",
        "zip_code": "4229"
    },
    {
        "id": "170",
        "province_id": "12",
        "name": "Mabini",
        "zip_code": "4202"
    },
    {
        "id": "171",
        "province_id": "12",
        "name": "Malvar",
        "zip_code": "4233"
    },
    {
        "id": "172",
        "province_id": "12",
        "name": "Mataas na Kahoy",
        "zip_code": "4223"
    },
    {
        "id": "173",
        "province_id": "12",
        "name": "Nasugbu",
        "zip_code": "4231"
    },
    {
        "id": "174",
        "province_id": "12",
        "name": "Padre Garcia",
        "zip_code": "4224"
    },
    {
        "id": "175",
        "province_id": "12",
        "name": "Rosario",
        "zip_code": "4225"
    },
    {
        "id": "176",
        "province_id": "12",
        "name": "San Jose",
        "zip_code": "4227"
    },
    {
        "id": "177",
        "province_id": "12",
        "name": "San Juan",
        "zip_code": "4226"
    },
    {
        "id": "178",
        "province_id": "12",
        "name": "San Luis",
        "zip_code": "4210"
    },
    {
        "id": "179",
        "province_id": "12",
        "name": "San Nicolas",
        "zip_code": "4207"
    },
    {
        "id": "180",
        "province_id": "12",
        "name": "San Pascual",
        "zip_code": "4204"
    },
    {
        "id": "181",
        "province_id": "12",
        "name": "Santa Teresita",
        "zip_code": "4206"
    },
    {
        "id": "182",
        "province_id": "12",
        "name": "Santo Tomas",
        "zip_code": "4234"
    },
    {
        "id": "183",
        "province_id": "12",
        "name": "Taal",
        "zip_code": "4234"
    },
    {
        "id": "184",
        "province_id": "12",
        "name": "Talisay",
        "zip_code": "4220"
    },
    {
        "id": "185",
        "province_id": "12",
        "name": "Tanauan City",
        "zip_code": "4220"
    },
    {
        "id": "186",
        "province_id": "12",
        "name": "Taysan",
        "zip_code": "4232"
    },
    {
        "id": "187",
        "province_id": "12",
        "name": "Tingloy",
        "zip_code": "4203"
    },
    {
        "id": "188",
        "province_id": "12",
        "name": "Tuy",
        "zip_code": "4214"
    },
    {
        "id": "189",
        "province_id": "13",
        "name": "Atok",
        "zip_code": "2612"
    },
    {
        "id": "190",
        "province_id": "13",
        "name": "Bakun",
        "zip_code": "2610"
    },
    {
        "id": "191",
        "province_id": "13",
        "name": "Bokod",
        "zip_code": "2605"
    },
    {
        "id": "192",
        "province_id": "13",
        "name": "Buguias",
        "zip_code": "2607"
    },
    {
        "id": "193",
        "province_id": "13",
        "name": "Itogon",
        "zip_code": "2604"
    },
    {
        "id": "194",
        "province_id": "13",
        "name": "Kabayan",
        "zip_code": "2606"
    },
    {
        "id": "195",
        "province_id": "13",
        "name": "Kapangan",
        "zip_code": "2613"
    },
    {
        "id": "196",
        "province_id": "5",
        "name": "Tabaco",
        "zip_code": "4511"
    },
    {
        "id": "197",
        "province_id": "13",
        "name": "Kibungan",
        "zip_code": "2611"
    },
    {
        "id": "198",
        "province_id": "13",
        "name": "La Trinidad",
        "zip_code": "2601"
    },
    {
        "id": "199",
        "province_id": "13",
        "name": "Baguio City",
        "zip_code": "2600"
    },
    {
        "id": "200",
        "province_id": "13",
        "name": "Mankayan",
        "zip_code": "2608"
    },
    {
        "id": "201",
        "province_id": "13",
        "name": "Sablan",
        "zip_code": "2614"
    },
    {
        "id": "202",
        "province_id": "13",
        "name": "Tuba",
        "zip_code": "2603"
    },
    {
        "id": "203",
        "province_id": "13",
        "name": "Tublay",
        "zip_code": "2615"
    },
    {
        "id": "204",
        "province_id": "14",
        "name": "Almeria",
        "zip_code": "6544"
    },
    {
        "id": "205",
        "province_id": "14",
        "name": "Biliran",
        "zip_code": "6549"
    },
    {
        "id": "206",
        "province_id": "14",
        "name": "Cabucgayan",
        "zip_code": "6550"
    },
    {
        "id": "207",
        "province_id": "14",
        "name": "Caibiran",
        "zip_code": "6548"
    },
    {
        "id": "208",
        "province_id": "14",
        "name": "Culaba",
        "zip_code": "6547"
    },
    {
        "id": "209",
        "province_id": "14",
        "name": "Kawayan",
        "zip_code": "6545"
    },
    {
        "id": "210",
        "province_id": "14",
        "name": "Naval",
        "zip_code": "6543"
    },
    {
        "id": "211",
        "province_id": "15",
        "name": "Baclayon",
        "zip_code": "6301"
    },
    {
        "id": "212",
        "province_id": "15",
        "name": "Albuquerque",
        "zip_code": "6302"
    },
    {
        "id": "213",
        "province_id": "15",
        "name": "Loay",
        "zip_code": "6303"
    },
    {
        "id": "214",
        "province_id": "15",
        "name": "Tagbilaran City",
        "zip_code": "6300"
    },
    {
        "id": "215",
        "province_id": "15",
        "name": "Lila",
        "zip_code": "6304"
    },
    {
        "id": "216",
        "province_id": "15",
        "name": "Dimiao",
        "zip_code": "6305"
    },
    {
        "id": "217",
        "province_id": "15",
        "name": "Valencia",
        "zip_code": "6306"
    },
    {
        "id": "218",
        "province_id": "15",
        "name": "Garcia Hernandez",
        "zip_code": "6307"
    },
    {
        "id": "219",
        "province_id": "15",
        "name": "Jagna",
        "zip_code": "6308"
    },
    {
        "id": "220",
        "province_id": "15",
        "name": "Duero",
        "zip_code": "6309"
    },
    {
        "id": "221",
        "province_id": "15",
        "name": "Guindulman",
        "zip_code": "6310"
    },
    {
        "id": "222",
        "province_id": "15",
        "name": "Anda",
        "zip_code": "6311"
    },
    {
        "id": "223",
        "province_id": "15",
        "name": "Candijay",
        "zip_code": "6312"
    },
    {
        "id": "224",
        "province_id": "15",
        "name": "Mabini",
        "zip_code": "6313"
    },
    {
        "id": "225",
        "province_id": "15",
        "name": "Alicia",
        "zip_code": "6314"
    },
    {
        "id": "226",
        "province_id": "15",
        "name": "Ubay",
        "zip_code": "6315"
    },
    {
        "id": "227",
        "province_id": "15",
        "name": "Loboc",
        "zip_code": "6316"
    },
    {
        "id": "228",
        "province_id": "15",
        "name": "Bilar",
        "zip_code": "6317"
    },
    {
        "id": "229",
        "province_id": "15",
        "name": "Batuan",
        "zip_code": "6318"
    },
    {
        "id": "230",
        "province_id": "15",
        "name": "Carmen",
        "zip_code": "6319"
    },
    {
        "id": "231",
        "province_id": "15",
        "name": "Sierra Bullones",
        "zip_code": "6320"
    },
    {
        "id": "232",
        "province_id": "15",
        "name": "Pilar",
        "zip_code": "6321"
    },
    {
        "id": "233",
        "province_id": "15",
        "name": "Daguhoy",
        "zip_code": "6322"
    },
    {
        "id": "234",
        "province_id": "15",
        "name": "San Miguel",
        "zip_code": "6323"
    },
    {
        "id": "235",
        "province_id": "15",
        "name": "Trinidad",
        "zip_code": "6324"
    },
    {
        "id": "236",
        "province_id": "15",
        "name": "Talibon",
        "zip_code": "6325"
    },
    {
        "id": "237",
        "province_id": "15",
        "name": "Bien Unido",
        "zip_code": "6326"
    },
    {
        "id": "238",
        "province_id": "15",
        "name": "Loon",
        "zip_code": "6327"
    },
    {
        "id": "239",
        "province_id": "15",
        "name": "Calape",
        "zip_code": "6328"
    },
    {
        "id": "240",
        "province_id": "15",
        "name": "Tubigon",
        "zip_code": "6329"
    },
    {
        "id": "241",
        "province_id": "15",
        "name": "Clarin",
        "zip_code": "6330"
    },
    {
        "id": "242",
        "province_id": "15",
        "name": "Sagbayan",
        "zip_code": "6331"
    },
    {
        "id": "243",
        "province_id": "15",
        "name": "Inabanga",
        "zip_code": "6332"
    },
    {
        "id": "244",
        "province_id": "15",
        "name": "Buenavista",
        "zip_code": "6333"
    },
    {
        "id": "245",
        "province_id": "15",
        "name": "Jetafe",
        "zip_code": "6334"
    },
    {
        "id": "246",
        "province_id": "15",
        "name": "Antiquera",
        "zip_code": "6335"
    },
    {
        "id": "247",
        "province_id": "15",
        "name": "Maribujoc",
        "zip_code": "6336"
    },
    {
        "id": "248",
        "province_id": "15",
        "name": "Corella",
        "zip_code": "6337"
    },
    {
        "id": "249",
        "province_id": "15",
        "name": "Sikatuna",
        "zip_code": "6338"
    },
    {
        "id": "250",
        "province_id": "15",
        "name": "Dauis",
        "zip_code": "6339"
    },
    {
        "id": "251",
        "province_id": "15",
        "name": "Panglao",
        "zip_code": "6340"
    },
    {
        "id": "252",
        "province_id": "15",
        "name": "Cortez",
        "zip_code": "6341"
    },
    {
        "id": "253",
        "province_id": "15",
        "name": "Balilihan",
        "zip_code": "6342"
    },
    {
        "id": "254",
        "province_id": "15",
        "name": "Catigbi-an",
        "zip_code": "6343"
    },
    {
        "id": "255",
        "province_id": "15",
        "name": "Danao",
        "zip_code": "6344"
    },
    {
        "id": "256",
        "province_id": "15",
        "name": "San Isidro",
        "zip_code": "6345"
    },
    {
        "id": "257",
        "province_id": "15",
        "name": "Carlos P. Garcia (Dao)",
        "zip_code": "6346"
    },
    {
        "id": "258",
        "province_id": "15",
        "name": "Sevilla",
        "zip_code": "6347"
    },
    {
        "id": "259",
        "province_id": "16",
        "name": "Malaybalay",
        "zip_code": "8700"
    },
    {
        "id": "260",
        "province_id": "16",
        "name": "Sumilao",
        "zip_code": "8701"
    },
    {
        "id": "261",
        "province_id": "16",
        "name": "Impasugong",
        "zip_code": "8702"
    },
    {
        "id": "262",
        "province_id": "16",
        "name": "Manolo Fortich",
        "zip_code": "8703"
    },
    {
        "id": "263",
        "province_id": "16",
        "name": "Malitbog",
        "zip_code": "8704"
    },
    {
        "id": "264",
        "province_id": "16",
        "name": "Phillips",
        "zip_code": "8705"
    },
    {
        "id": "265",
        "province_id": "16",
        "name": "Libuna",
        "zip_code": "8706"
    },
    {
        "id": "266",
        "province_id": "16",
        "name": "Balungon",
        "zip_code": "8707"
    },
    {
        "id": "267",
        "province_id": "16",
        "name": "Talakag",
        "zip_code": "8708"
    },
    {
        "id": "268",
        "province_id": "16",
        "name": "Valencia",
        "zip_code": "8709"
    },
    {
        "id": "269",
        "province_id": "16",
        "name": "Musuan",
        "zip_code": "8710"
    },
    {
        "id": "270",
        "province_id": "16",
        "name": "San Fernando",
        "zip_code": "8711"
    },
    {
        "id": "271",
        "province_id": "16",
        "name": "Don Carlos",
        "zip_code": "8712"
    },
    {
        "id": "272",
        "province_id": "16",
        "name": "Kadingilan",
        "zip_code": "8713"
    },
    {
        "id": "273",
        "province_id": "16",
        "name": "Maramag",
        "zip_code": "8714"
    },
    {
        "id": "274",
        "province_id": "16",
        "name": "Quezon",
        "zip_code": "8715"
    },
    {
        "id": "275",
        "province_id": "16",
        "name": "Kitaotao",
        "zip_code": "8716"
    },
    {
        "id": "276",
        "province_id": "16",
        "name": "Pangantucan",
        "zip_code": "8717"
    },
    {
        "id": "277",
        "province_id": "16",
        "name": "Kalilangan",
        "zip_code": "8718"
    },
    {
        "id": "278",
        "province_id": "16",
        "name": "Dangcagan",
        "zip_code": "8719"
    },
    {
        "id": "279",
        "province_id": "16",
        "name": "Kibawe",
        "zip_code": "8720"
    },
    {
        "id": "280",
        "province_id": "16",
        "name": "Damulog",
        "zip_code": "8721"
    },
    {
        "id": "281",
        "province_id": "16",
        "name": "Lantapan",
        "zip_code": "8722"
    },
    {
        "id": "282",
        "province_id": "16",
        "name": "Kabanglasan",
        "zip_code": "8723"
    },
    {
        "id": "283",
        "province_id": "17",
        "name": "Malolos",
        "zip_code": "3000"
    },
    {
        "id": "284",
        "province_id": "17",
        "name": "Paombong",
        "zip_code": "3001"
    },
    {
        "id": "285",
        "province_id": "17",
        "name": "Hagonoy",
        "zip_code": "3002"
    },
    {
        "id": "286",
        "province_id": "17",
        "name": "Calumpit",
        "zip_code": "3003"
    },
    {
        "id": "287",
        "province_id": "17",
        "name": "Plaridel",
        "zip_code": "3004"
    },
    {
        "id": "288",
        "province_id": "17",
        "name": "Pulilan",
        "zip_code": "3005"
    },
    {
        "id": "289",
        "province_id": "17",
        "name": "Baliuag",
        "zip_code": "3006"
    },
    {
        "id": "290",
        "province_id": "17",
        "name": "Bustos",
        "zip_code": "3007"
    },
    {
        "id": "291",
        "province_id": "17",
        "name": "San Rafael",
        "zip_code": "3008"
    },
    {
        "id": "292",
        "province_id": "17",
        "name": "Dona Remedios Trinidad",
        "zip_code": "3009"
    },
    {
        "id": "293",
        "province_id": "17",
        "name": "San Ildefonso",
        "zip_code": "3010"
    },
    {
        "id": "294",
        "province_id": "17",
        "name": "San Miguel",
        "zip_code": "3011"
    },
    {
        "id": "295",
        "province_id": "17",
        "name": "Angat",
        "zip_code": "3012"
    },
    {
        "id": "296",
        "province_id": "17",
        "name": "Norzagaray",
        "zip_code": "3013"
    },
    {
        "id": "297",
        "province_id": "17",
        "name": "Pandi",
        "zip_code": "3014"
    },
    {
        "id": "298",
        "province_id": "17",
        "name": "Guiguinto",
        "zip_code": "3015"
    },
    {
        "id": "299",
        "province_id": "17",
        "name": "Balagtas",
        "zip_code": "3016"
    },
    {
        "id": "300",
        "province_id": "17",
        "name": "Balagtas",
        "zip_code": "3016"
    },
    {
        "id": "301",
        "province_id": "17",
        "name": "Bulacan",
        "zip_code": "3017"
    },
    {
        "id": "302",
        "province_id": "17",
        "name": "Bocaue",
        "zip_code": "3018"
    },
    {
        "id": "303",
        "province_id": "17",
        "name": "Marilao",
        "zip_code": "3019"
    },
    {
        "id": "304",
        "province_id": "17",
        "name": "Meycauayan",
        "zip_code": "3020"
    },
    {
        "id": "305",
        "province_id": "17",
        "name": "Obando",
        "zip_code": "3021"
    },
    {
        "id": "306",
        "province_id": "17",
        "name": "Santa Maria",
        "zip_code": "3022"
    },
    {
        "id": "307",
        "province_id": "17",
        "name": "San Jose del Monte",
        "zip_code": "3023"
    },
    {
        "id": "308",
        "province_id": "17",
        "name": "Sapang Palay",
        "zip_code": "3024"
    },
    {
        "id": "309",
        "province_id": "18",
        "name": "Tuguegarao",
        "zip_code": "3500"
    },
    {
        "id": "310",
        "province_id": "18",
        "name": "Enrile",
        "zip_code": "3501"
    },
    {
        "id": "311",
        "province_id": "18",
        "name": "Penablanca",
        "zip_code": "3502"
    },
    {
        "id": "312",
        "province_id": "18",
        "name": "Solana",
        "zip_code": "3503"
    },
    {
        "id": "313",
        "province_id": "18",
        "name": "Iguig",
        "zip_code": "3504"
    },
    {
        "id": "314",
        "province_id": "18",
        "name": "Amulung",
        "zip_code": "3505"
    },
    {
        "id": "315",
        "province_id": "18",
        "name": "Baggao",
        "zip_code": "3506"
    },
    {
        "id": "316",
        "province_id": "18",
        "name": "Alcala",
        "zip_code": "3507"
    },
    {
        "id": "317",
        "province_id": "18",
        "name": "Gattaran",
        "zip_code": "3508"
    },
    {
        "id": "318",
        "province_id": "18",
        "name": "Lal-lo",
        "zip_code": "3509"
    },
    {
        "id": "319",
        "province_id": "18",
        "name": "Camalaniugan",
        "zip_code": "3510"
    },
    {
        "id": "320",
        "province_id": "18",
        "name": "Buguey",
        "zip_code": "3511"
    },
    {
        "id": "321",
        "province_id": "18",
        "name": "Santa Teresita",
        "zip_code": "3512"
    },
    {
        "id": "322",
        "province_id": "18",
        "name": "Gonzaga",
        "zip_code": "3513"
    },
    {
        "id": "323",
        "province_id": "18",
        "name": "Santa Ana",
        "zip_code": "3514"
    },
    {
        "id": "324",
        "province_id": "18",
        "name": "Aparri",
        "zip_code": "3515"
    },
    {
        "id": "325",
        "province_id": "18",
        "name": "Ballesteros",
        "zip_code": "3516"
    },
    {
        "id": "326",
        "province_id": "18",
        "name": "Abulog",
        "zip_code": "3517"
    },
    {
        "id": "327",
        "province_id": "18",
        "name": "Sanchez Mira",
        "zip_code": "3518"
    },
    {
        "id": "328",
        "province_id": "18",
        "name": "Claveria",
        "zip_code": "3519"
    },
    {
        "id": "329",
        "province_id": "18",
        "name": "Calayan",
        "zip_code": "3520"
    },
    {
        "id": "330",
        "province_id": "18",
        "name": "Santa Praxedes",
        "zip_code": "3521"
    },
    {
        "id": "331",
        "province_id": "18",
        "name": "Pamplona",
        "zip_code": "3522"
    },
    {
        "id": "332",
        "province_id": "18",
        "name": "Allacapan",
        "zip_code": "3523"
    },
    {
        "id": "333",
        "province_id": "18",
        "name": "Lasam",
        "zip_code": "3524"
    },
    {
        "id": "334",
        "province_id": "18",
        "name": "Santo Nino",
        "zip_code": "3525"
    },
    {
        "id": "335",
        "province_id": "18",
        "name": "Rizal",
        "zip_code": "3526"
    },
    {
        "id": "336",
        "province_id": "18",
        "name": "Piat",
        "zip_code": "3527"
    },
    {
        "id": "337",
        "province_id": "18",
        "name": "Tuao",
        "zip_code": "3528"
    },
    {
        "id": "338",
        "province_id": "19",
        "name": "Daet",
        "zip_code": "4600"
    },
    {
        "id": "339",
        "province_id": "19",
        "name": "Mercedez",
        "zip_code": "4601"
    },
    {
        "id": "340",
        "province_id": "19",
        "name": "Talisay",
        "zip_code": "4602"
    },
    {
        "id": "341",
        "province_id": "19",
        "name": "Vinzons",
        "zip_code": "4603"
    },
    {
        "id": "342",
        "province_id": "19",
        "name": "Labo",
        "zip_code": "4604"
    },
    {
        "id": "343",
        "province_id": "19",
        "name": "Paracale",
        "zip_code": "4605"
    },
    {
        "id": "344",
        "province_id": "19",
        "name": "Jose Panganiban",
        "zip_code": "4606"
    },
    {
        "id": "345",
        "province_id": "19",
        "name": "Capalonga",
        "zip_code": "4607"
    },
    {
        "id": "346",
        "province_id": "19",
        "name": "Basud",
        "zip_code": "4608"
    },
    {
        "id": "347",
        "province_id": "19",
        "name": "San Vicente",
        "zip_code": "4609"
    },
    {
        "id": "348",
        "province_id": "19",
        "name": "Imelda",
        "zip_code": "4610"
    },
    {
        "id": "349",
        "province_id": "19",
        "name": "Santa Elena",
        "zip_code": "4611"
    },
    {
        "id": "350",
        "province_id": "19",
        "name": "Tulay na Lupa",
        "zip_code": "4612"
    },
    {
        "id": "351",
        "province_id": "20",
        "name": "Naga City",
        "zip_code": "4400"
    },
    {
        "id": "352",
        "province_id": "20",
        "name": "Camaligan",
        "zip_code": "4401"
    },
    {
        "id": "353",
        "province_id": "20",
        "name": "Canaman",
        "zip_code": "4402"
    },
    {
        "id": "354",
        "province_id": "20",
        "name": "Magarao",
        "zip_code": "4403"
    },
    {
        "id": "355",
        "province_id": "20",
        "name": "Bombon",
        "zip_code": "4404"
    },
    {
        "id": "356",
        "province_id": "20",
        "name": "Calabanga",
        "zip_code": "4405"
    },
    {
        "id": "357",
        "province_id": "20",
        "name": "Cabusao",
        "zip_code": "4406"
    },
    {
        "id": "358",
        "province_id": "20",
        "name": "Libmanan",
        "zip_code": "4407"
    },
    {
        "id": "359",
        "province_id": "20",
        "name": "Sipocot",
        "zip_code": "4408"
    },
    {
        "id": "360",
        "province_id": "20",
        "name": "Lupi",
        "zip_code": "4409"
    },
    {
        "id": "361",
        "province_id": "20",
        "name": "Ragay",
        "zip_code": "4410"
    },
    {
        "id": "362",
        "province_id": "20",
        "name": "Del Gallego",
        "zip_code": "4411"
    },
    {
        "id": "363",
        "province_id": "20",
        "name": "Gainza",
        "zip_code": "4412"
    },
    {
        "id": "364",
        "province_id": "20",
        "name": "Milaor",
        "zip_code": "4413"
    },
    {
        "id": "365",
        "province_id": "20",
        "name": "Minalabac",
        "zip_code": "4414"
    },
    {
        "id": "366",
        "province_id": "20",
        "name": "San Fernando",
        "zip_code": "4415"
    },
    {
        "id": "367",
        "province_id": "20",
        "name": "Pamplona",
        "zip_code": "4416"
    },
    {
        "id": "368",
        "province_id": "20",
        "name": "Pasacao",
        "zip_code": "4417"
    },
    {
        "id": "369",
        "province_id": "20",
        "name": "Pili",
        "zip_code": "4418"
    },
    {
        "id": "370",
        "province_id": "20",
        "name": "Ocampo",
        "zip_code": "4419"
    },
    {
        "id": "371",
        "province_id": "20",
        "name": "Tigaon",
        "zip_code": "4420"
    },
    {
        "id": "372",
        "province_id": "20",
        "name": "Sagnay",
        "zip_code": "4421"
    },
    {
        "id": "373",
        "province_id": "20",
        "name": "Goa",
        "zip_code": "4422"
    },
    {
        "id": "374",
        "province_id": "20",
        "name": "San Jose",
        "zip_code": "4423"
    },
    {
        "id": "375",
        "province_id": "20",
        "name": "Presentacion",
        "zip_code": "4424"
    },
    {
        "id": "376",
        "province_id": "20",
        "name": "Lagunoy",
        "zip_code": "4425"
    },
    {
        "id": "377",
        "province_id": "20",
        "name": "Tinambac",
        "zip_code": "4426"
    },
    {
        "id": "378",
        "province_id": "20",
        "name": "Siruma",
        "zip_code": "4427"
    },
    {
        "id": "379",
        "province_id": "20",
        "name": "Garchitorena",
        "zip_code": "4428"
    },
    {
        "id": "380",
        "province_id": "20",
        "name": "Caramoan",
        "zip_code": "4429"
    },
    {
        "id": "381",
        "province_id": "20",
        "name": "Bula",
        "zip_code": "4430"
    },
    {
        "id": "382",
        "province_id": "20",
        "name": "Iriga City",
        "zip_code": "4431"
    },
    {
        "id": "383",
        "province_id": "20",
        "name": "Baao",
        "zip_code": "4432"
    },
    {
        "id": "384",
        "province_id": "20",
        "name": "Buhi",
        "zip_code": "4433"
    },
    {
        "id": "385",
        "province_id": "20",
        "name": "Nabua",
        "zip_code": "4434"
    },
    {
        "id": "386",
        "province_id": "20",
        "name": "Bato",
        "zip_code": "4435"
    },
    {
        "id": "387",
        "province_id": "20",
        "name": "Balatan",
        "zip_code": "4436"
    },
    {
        "id": "388",
        "province_id": "21",
        "name": "Mambajao",
        "zip_code": "9100"
    },
    {
        "id": "389",
        "province_id": "21",
        "name": "Mahinog",
        "zip_code": "9101"
    },
    {
        "id": "390",
        "province_id": "21",
        "name": "Guinsiliban",
        "zip_code": "9102"
    },
    {
        "id": "391",
        "province_id": "21",
        "name": "Sagay",
        "zip_code": "9103"
    },
    {
        "id": "392",
        "province_id": "21",
        "name": "Catarman",
        "zip_code": "9104"
    },
    {
        "id": "393",
        "province_id": "22",
        "name": "Roxas City",
        "zip_code": "5800"
    },
    {
        "id": "394",
        "province_id": "22",
        "name": "Panay",
        "zip_code": "5801"
    },
    {
        "id": "395",
        "province_id": "22",
        "name": "Puntevedra",
        "zip_code": "5802"
    },
    {
        "id": "396",
        "province_id": "22",
        "name": "Pres. Roxas",
        "zip_code": "5803"
    },
    {
        "id": "397",
        "province_id": "22",
        "name": "Pilar",
        "zip_code": "5804"
    },
    {
        "id": "398",
        "province_id": "22",
        "name": "Ivisan",
        "zip_code": "5805"
    },
    {
        "id": "399",
        "province_id": "22",
        "name": "Sapian",
        "zip_code": "5806"
    },
    {
        "id": "400",
        "province_id": "22",
        "name": "Mambusao",
        "zip_code": "5807"
    },
    {
        "id": "401",
        "province_id": "22",
        "name": "Jamindan",
        "zip_code": "5808"
    },
    {
        "id": "402",
        "province_id": "22",
        "name": "Ma-ayon",
        "zip_code": "5809"
    },
    {
        "id": "403",
        "province_id": "22",
        "name": "Dao",
        "zip_code": "5810"
    },
    {
        "id": "404",
        "province_id": "22",
        "name": "Cuartero",
        "zip_code": "5811"
    },
    {
        "id": "405",
        "province_id": "22",
        "name": "Dumarao",
        "zip_code": "5812"
    },
    {
        "id": "406",
        "province_id": "22",
        "name": "Dumalag",
        "zip_code": "5813"
    },
    {
        "id": "407",
        "province_id": "22",
        "name": "Tapaz",
        "zip_code": "5814"
    },
    {
        "id": "408",
        "province_id": "22",
        "name": "Panitan",
        "zip_code": "5815"
    },
    {
        "id": "409",
        "province_id": "22",
        "name": "Sigma",
        "zip_code": "5816"
    },
    {
        "id": "410",
        "province_id": "23",
        "name": "Virac",
        "zip_code": "4800"
    },
    {
        "id": "411",
        "province_id": "23",
        "name": "Bato",
        "zip_code": "4801"
    },
    {
        "id": "412",
        "province_id": "23",
        "name": "San Miguel",
        "zip_code": "4802"
    },
    {
        "id": "413",
        "province_id": "23",
        "name": "Baras",
        "zip_code": "4803"
    },
    {
        "id": "414",
        "province_id": "23",
        "name": "Gigmoto",
        "zip_code": "4804"
    },
    {
        "id": "415",
        "province_id": "23",
        "name": "Viga",
        "zip_code": "4805"
    },
    {
        "id": "416",
        "province_id": "23",
        "name": "Panganiban",
        "zip_code": "4806"
    },
    {
        "id": "417",
        "province_id": "23",
        "name": "Bagamanoc",
        "zip_code": "4807"
    },
    {
        "id": "418",
        "province_id": "23",
        "name": "Caramoran",
        "zip_code": "4808"
    },
    {
        "id": "419",
        "province_id": "23",
        "name": "Pandan",
        "zip_code": "4809"
    },
    {
        "id": "420",
        "province_id": "23",
        "name": "San Andres",
        "zip_code": "4810"
    },
    {
        "id": "421",
        "province_id": "24",
        "name": "Cavite City",
        "zip_code": "4100"
    },
    {
        "id": "422",
        "province_id": "24",
        "name": "Cavite Naval Base",
        "zip_code": "4101"
    },
    {
        "id": "423",
        "province_id": "24",
        "name": "Bacoor",
        "zip_code": "4102"
    },
    {
        "id": "424",
        "province_id": "24",
        "name": "Imus",
        "zip_code": "4103"
    },
    {
        "id": "425",
        "province_id": "24",
        "name": "Kawit",
        "zip_code": "4104"
    },
    {
        "id": "426",
        "province_id": "24",
        "name": "Noveleta",
        "zip_code": "4105"
    },
    {
        "id": "427",
        "province_id": "24",
        "name": "Rosario",
        "zip_code": "4106"
    },
    {
        "id": "428",
        "province_id": "24",
        "name": "Gen. Trias",
        "zip_code": "4107"
    },
    {
        "id": "429",
        "province_id": "24",
        "name": "Tanza",
        "zip_code": "4108"
    },
    {
        "id": "430",
        "province_id": "24",
        "name": "Trece Martirez City",
        "zip_code": "4109"
    },
    {
        "id": "431",
        "province_id": "24",
        "name": "Naic",
        "zip_code": "4110"
    },
    {
        "id": "432",
        "province_id": "24",
        "name": "Ternate",
        "zip_code": "4111"
    },
    {
        "id": "433",
        "province_id": "24",
        "name": "Maragondon",
        "zip_code": "4112"
    },
    {
        "id": "434",
        "province_id": "24",
        "name": "Magallanes",
        "zip_code": "4113"
    },
    {
        "id": "435",
        "province_id": "24",
        "name": "Dasmarinas",
        "zip_code": "4114"
    },
    {
        "id": "436",
        "province_id": "24",
        "name": "Dasmarinas Resettlement Area",
        "zip_code": "4115"
    },
    {
        "id": "437",
        "province_id": "24",
        "name": "Carmona",
        "zip_code": "4116"
    },
    {
        "id": "438",
        "province_id": "24",
        "name": "Gen. Mariano Alvarez",
        "zip_code": "4117"
    },
    {
        "id": "439",
        "province_id": "24",
        "name": "Silang",
        "zip_code": "4118"
    },
    {
        "id": "440",
        "province_id": "24",
        "name": "Amadeo",
        "zip_code": "4119"
    },
    {
        "id": "441",
        "province_id": "24",
        "name": "Tagaytay City",
        "zip_code": "4120"
    },
    {
        "id": "442",
        "province_id": "24",
        "name": "Mendez",
        "zip_code": "4121"
    },
    {
        "id": "443",
        "province_id": "24",
        "name": "Indang",
        "zip_code": "4122"
    },
    {
        "id": "444",
        "province_id": "24",
        "name": "Alfonso",
        "zip_code": "4123"
    },
    {
        "id": "445",
        "province_id": "24",
        "name": "Gen. Aguinaldo (Bailen)",
        "zip_code": "4124"
    },
    {
        "id": "446",
        "province_id": "24",
        "name": "Corregidor",
        "zip_code": "4125"
    },
    {
        "id": "447",
        "province_id": "24",
        "name": "1st Cavite Industrial Estate",
        "zip_code": "4126"
    },
    {
        "id": "448",
        "province_id": "25",
        "name": "Cebu City",
        "zip_code": "6000"
    },
    {
        "id": "449",
        "province_id": "25",
        "name": "Consolacion",
        "zip_code": "6001"
    },
    {
        "id": "450",
        "province_id": "25",
        "name": "Liloan",
        "zip_code": "6002"
    },
    {
        "id": "451",
        "province_id": "25",
        "name": "Compostela",
        "zip_code": "6003"
    },
    {
        "id": "452",
        "province_id": "25",
        "name": "Danao City",
        "zip_code": "6004"
    },
    {
        "id": "453",
        "province_id": "25",
        "name": "Carmen",
        "zip_code": "6005"
    },
    {
        "id": "454",
        "province_id": "25",
        "name": "Catmon",
        "zip_code": "6006"
    },
    {
        "id": "455",
        "province_id": "25",
        "name": "Sogod",
        "zip_code": "6007"
    },
    {
        "id": "456",
        "province_id": "25",
        "name": "Borbon",
        "zip_code": "6008"
    },
    {
        "id": "457",
        "province_id": "25",
        "name": "Tabogon",
        "zip_code": "6009"
    },
    {
        "id": "458",
        "province_id": "25",
        "name": "Bogo City",
        "zip_code": "6010"
    },
    {
        "id": "459",
        "province_id": "25",
        "name": "San Remegio",
        "zip_code": "6011"
    },
    {
        "id": "460",
        "province_id": "25",
        "name": "Medellin",
        "zip_code": "6012"
    },
    {
        "id": "461",
        "province_id": "25",
        "name": "Daang-Bantayan",
        "zip_code": "6013"
    },
    {
        "id": "462",
        "province_id": "25",
        "name": "Mandaue City",
        "zip_code": "6014"
    },
    {
        "id": "463",
        "province_id": "25",
        "name": "Lapu-lapu City",
        "zip_code": "6015"
    },
    {
        "id": "464",
        "province_id": "25",
        "name": "Mactan Airport",
        "zip_code": "6016"
    },
    {
        "id": "465",
        "province_id": "25",
        "name": "Cordova",
        "zip_code": "6017"
    },
    {
        "id": "466",
        "province_id": "25",
        "name": "San Fernando",
        "zip_code": "6018"
    },
    {
        "id": "467",
        "province_id": "25",
        "name": "Carcar",
        "zip_code": "6019"
    },
    {
        "id": "468",
        "province_id": "25",
        "name": "Sibonga",
        "zip_code": "6020"
    },
    {
        "id": "469",
        "province_id": "25",
        "name": "Argao",
        "zip_code": "6021"
    },
    {
        "id": "470",
        "province_id": "25",
        "name": "Dalaguete",
        "zip_code": "6022"
    },
    {
        "id": "471",
        "province_id": "25",
        "name": "Alcoy",
        "zip_code": "6023"
    },
    {
        "id": "472",
        "province_id": "25",
        "name": "Boljoon",
        "zip_code": "6024"
    },
    {
        "id": "473",
        "province_id": "25",
        "name": "Oslob",
        "zip_code": "6025"
    },
    {
        "id": "474",
        "province_id": "25",
        "name": "Santander",
        "zip_code": "6026"
    },
    {
        "id": "475",
        "province_id": "25",
        "name": "Samboan",
        "zip_code": "6027"
    },
    {
        "id": "476",
        "province_id": "25",
        "name": "Ginatilan",
        "zip_code": "6028"
    },
    {
        "id": "477",
        "province_id": "25",
        "name": "Malabuyoc",
        "zip_code": "6029"
    },
    {
        "id": "478",
        "province_id": "25",
        "name": "Alegria",
        "zip_code": "6030"
    },
    {
        "id": "479",
        "province_id": "25",
        "name": "Badian",
        "zip_code": "6031"
    },
    {
        "id": "480",
        "province_id": "25",
        "name": "Moalboal",
        "zip_code": "6032"
    },
    {
        "id": "481",
        "province_id": "25",
        "name": "Alcantara",
        "zip_code": "6033"
    },
    {
        "id": "482",
        "province_id": "25",
        "name": "Ronda",
        "zip_code": "6034"
    },
    {
        "id": "483",
        "province_id": "25",
        "name": "Dumanjug",
        "zip_code": "6035"
    },
    {
        "id": "484",
        "province_id": "25",
        "name": "Barili",
        "zip_code": "6036"
    },
    {
        "id": "485",
        "province_id": "25",
        "name": "Naga City",
        "zip_code": "6037"
    },
    {
        "id": "486",
        "province_id": "25",
        "name": "Toledo City",
        "zip_code": "6038"
    },
    {
        "id": "487",
        "province_id": "25",
        "name": "Pinamungahan",
        "zip_code": "6039"
    },
    {
        "id": "488",
        "province_id": "25",
        "name": "Aloguinsan",
        "zip_code": "6040"
    },
    {
        "id": "489",
        "province_id": "25",
        "name": "Balamban",
        "zip_code": "6041"
    },
    {
        "id": "490",
        "province_id": "25",
        "name": "Asturias",
        "zip_code": "6042"
    },
    {
        "id": "491",
        "province_id": "25",
        "name": "Tuburan",
        "zip_code": "6043"
    },
    {
        "id": "492",
        "province_id": "25",
        "name": "Tabuelan",
        "zip_code": "6044"
    },
    {
        "id": "493",
        "province_id": "25",
        "name": "Talisay City",
        "zip_code": "6045"
    },
    {
        "id": "494",
        "province_id": "25",
        "name": "Minglanilla",
        "zip_code": "6046"
    },
    {
        "id": "495",
        "province_id": "25",
        "name": "Santa Fe",
        "zip_code": "6047"
    },
    {
        "id": "496",
        "province_id": "25",
        "name": "Pilar",
        "zip_code": "6048"
    },
    {
        "id": "497",
        "province_id": "25",
        "name": "Poro",
        "zip_code": "6049"
    },
    {
        "id": "498",
        "province_id": "25",
        "name": "San Francisco",
        "zip_code": "6050"
    },
    {
        "id": "499",
        "province_id": "25",
        "name": "Tudela",
        "zip_code": "6051"
    },
    {
        "id": "500",
        "province_id": "25",
        "name": "Bantayan",
        "zip_code": "6052"
    },
    {
        "id": "501",
        "province_id": "25",
        "name": "Madridejos",
        "zip_code": "6053"
    },
    {
        "id": "502",
        "province_id": "26",
        "name": "Nabunturan",
        "zip_code": "8800"
    },
    {
        "id": "503",
        "province_id": "26",
        "name": "Montevista",
        "zip_code": "8801"
    },
    {
        "id": "504",
        "province_id": "26",
        "name": "Mawab",
        "zip_code": "8802"
    },
    {
        "id": "505",
        "province_id": "26",
        "name": "Compostela",
        "zip_code": "8803"
    },
    {
        "id": "506",
        "province_id": "26",
        "name": "New Bataan",
        "zip_code": "8804"
    },
    {
        "id": "507",
        "province_id": "26",
        "name": "Monkayo",
        "zip_code": "8805"
    },
    {
        "id": "508",
        "province_id": "26",
        "name": "Maco",
        "zip_code": "8806"
    },
    {
        "id": "509",
        "province_id": "26",
        "name": "Mabini",
        "zip_code": "8807"
    },
    {
        "id": "510",
        "province_id": "26",
        "name": "Maragusan",
        "zip_code": "8808"
    },
    {
        "id": "511",
        "province_id": "26",
        "name": "Pantukan",
        "zip_code": "8809"
    },
    {
        "id": "512",
        "province_id": "26",
        "name": "Laak",
        "zip_code": "8810"
    },
    {
        "id": "513",
        "province_id": "28",
        "name": "Tagum City",
        "zip_code": "8100"
    },
    {
        "id": "514",
        "province_id": "28",
        "name": "Carmen",
        "zip_code": "8101"
    },
    {
        "id": "515",
        "province_id": "28",
        "name": "Asuncion",
        "zip_code": "8102"
    },
    {
        "id": "516",
        "province_id": "28",
        "name": "San Vicente",
        "zip_code": "8103"
    },
    {
        "id": "517",
        "province_id": "28",
        "name": "New Corella",
        "zip_code": "8104"
    },
    {
        "id": "518",
        "province_id": "28",
        "name": "Panabo",
        "zip_code": "8105"
    },
    {
        "id": "519",
        "province_id": "28",
        "name": "Santo Tomas",
        "zip_code": "8112"
    },
    {
        "id": "520",
        "province_id": "28",
        "name": "Kapalong",
        "zip_code": "8113"
    },
    {
        "id": "521",
        "province_id": "28",
        "name": "San Mariano",
        "zip_code": "8116"
    },
    {
        "id": "522",
        "province_id": "28",
        "name": "Babak",
        "zip_code": "8118"
    },
    {
        "id": "523",
        "province_id": "28",
        "name": "Samal",
        "zip_code": "8119"
    },
    {
        "id": "524",
        "province_id": "28",
        "name": "Kaputian",
        "zip_code": "8120"
    },
    {
        "id": "525",
        "province_id": "29",
        "name": "Davao City",
        "zip_code": "8000"
    },
    {
        "id": "526",
        "province_id": "29",
        "name": "Santa Cruz",
        "zip_code": "8001"
    },
    {
        "id": "527",
        "province_id": "29",
        "name": "Digos",
        "zip_code": "8002"
    },
    {
        "id": "528",
        "province_id": "29",
        "name": "Matanao",
        "zip_code": "8003"
    },
    {
        "id": "529",
        "province_id": "29",
        "name": "Magsaysay",
        "zip_code": "8004"
    },
    {
        "id": "530",
        "province_id": "29",
        "name": "Bansalan",
        "zip_code": "8005"
    },
    {
        "id": "531",
        "province_id": "29",
        "name": "Hagunoy",
        "zip_code": "8006"
    },
    {
        "id": "532",
        "province_id": "29",
        "name": "Padada",
        "zip_code": "8007"
    },
    {
        "id": "533",
        "province_id": "29",
        "name": "Kiblawan",
        "zip_code": "8008"
    },
    {
        "id": "534",
        "province_id": "29",
        "name": "Sulop",
        "zip_code": "8009"
    },
    {
        "id": "535",
        "province_id": "29",
        "name": "Malalag",
        "zip_code": "8010"
    },
    {
        "id": "536",
        "province_id": "29",
        "name": "Santa Maria",
        "zip_code": "8011"
    },
    {
        "id": "537",
        "province_id": "29",
        "name": "Malita",
        "zip_code": "8012"
    },
    {
        "id": "538",
        "province_id": "29",
        "name": "Don Marcelino",
        "zip_code": "8013"
    },
    {
        "id": "539",
        "province_id": "29",
        "name": "Jose Abad Santos",
        "zip_code": "8014"
    },
    {
        "id": "540",
        "province_id": "29",
        "name": "Sarangani",
        "zip_code": "8015"
    },
    {
        "id": "541",
        "province_id": "30",
        "name": "Mati",
        "zip_code": "8200"
    },
    {
        "id": "542",
        "province_id": "30",
        "name": "Tarragona",
        "zip_code": "8201"
    },
    {
        "id": "543",
        "province_id": "30",
        "name": "Manay",
        "zip_code": "8202"
    },
    {
        "id": "544",
        "province_id": "30",
        "name": "Caraga",
        "zip_code": "8203"
    },
    {
        "id": "545",
        "province_id": "30",
        "name": "Baganga",
        "zip_code": "8204"
    },
    {
        "id": "546",
        "province_id": "30",
        "name": "Cateel",
        "zip_code": "8205"
    },
    {
        "id": "547",
        "province_id": "30",
        "name": "Boston",
        "zip_code": "8206"
    },
    {
        "id": "548",
        "province_id": "30",
        "name": "Lopon",
        "zip_code": "8207"
    },
    {
        "id": "549",
        "province_id": "30",
        "name": "Banaybanay",
        "zip_code": "8208"
    },
    {
        "id": "550",
        "province_id": "30",
        "name": "San Isidro",
        "zip_code": "8209"
    },
    {
        "id": "551",
        "province_id": "30",
        "name": "Gov. Generoso",
        "zip_code": "8210"
    },
    {
        "id": "552",
        "province_id": "32",
        "name": "Borongan",
        "zip_code": "6800"
    },
    {
        "id": "553",
        "province_id": "32",
        "name": "Balangkayan",
        "zip_code": "6801"
    },
    {
        "id": "554",
        "province_id": "32",
        "name": "Maydulong",
        "zip_code": "6802"
    },
    {
        "id": "555",
        "province_id": "32",
        "name": "Llorente",
        "zip_code": "6803"
    },
    {
        "id": "556",
        "province_id": "32",
        "name": "Hernani",
        "zip_code": "6804"
    },
    {
        "id": "557",
        "province_id": "32",
        "name": "Gen. MacArthur",
        "zip_code": "6805"
    },
    {
        "id": "558",
        "province_id": "32",
        "name": "Can-avid",
        "zip_code": "6806"
    },
    {
        "id": "559",
        "province_id": "32",
        "name": "Salcedo",
        "zip_code": "6807"
    },
    {
        "id": "560",
        "province_id": "32",
        "name": "Mercedes",
        "zip_code": "6808"
    },
    {
        "id": "561",
        "province_id": "32",
        "name": "Guiuan",
        "zip_code": "6809"
    },
    {
        "id": "562",
        "province_id": "32",
        "name": "Quinapundan",
        "zip_code": "6810"
    },
    {
        "id": "563",
        "province_id": "32",
        "name": "Giporlos",
        "zip_code": "6811"
    },
    {
        "id": "564",
        "province_id": "32",
        "name": "Balangiga",
        "zip_code": "6812"
    },
    {
        "id": "565",
        "province_id": "32",
        "name": "Lawa-an",
        "zip_code": "6813"
    },
    {
        "id": "566",
        "province_id": "32",
        "name": "San Julian",
        "zip_code": "6814"
    },
    {
        "id": "567",
        "province_id": "32",
        "name": "Sulat",
        "zip_code": "6815"
    },
    {
        "id": "568",
        "province_id": "32",
        "name": "Taft",
        "zip_code": "6816"
    },
    {
        "id": "569",
        "province_id": "32",
        "name": "Dolores",
        "zip_code": "6817"
    },
    {
        "id": "570",
        "province_id": "32",
        "name": "Oras",
        "zip_code": "6818"
    },
    {
        "id": "571",
        "province_id": "32",
        "name": "Jipapad",
        "zip_code": "6819"
    },
    {
        "id": "572",
        "province_id": "32",
        "name": "Maslog",
        "zip_code": "6820"
    },
    {
        "id": "573",
        "province_id": "32",
        "name": "San Policarpio",
        "zip_code": "6821"
    },
    {
        "id": "574",
        "province_id": "32",
        "name": "Arteche",
        "zip_code": "6822"
    },
    {
        "id": "575",
        "province_id": "33",
        "name": "Nueva Valencia",
        "zip_code": "5046"
    },
    {
        "id": "576",
        "province_id": "33",
        "name": "Buenavista",
        "zip_code": "5044"
    },
    {
        "id": "577",
        "province_id": "33",
        "name": "Jordan",
        "zip_code": "5045"
    },
    {
        "id": "578",
        "province_id": "34",
        "name": "Lagawe",
        "zip_code": "3600"
    },
    {
        "id": "579",
        "province_id": "34",
        "name": "Banaue",
        "zip_code": "3601"
    },
    {
        "id": "580",
        "province_id": "34",
        "name": "Mayaoyao (Mayoyao)",
        "zip_code": "3602"
    },
    {
        "id": "581",
        "province_id": "34",
        "name": "Hungduan",
        "zip_code": "3603"
    },
    {
        "id": "582",
        "province_id": "34",
        "name": "Kiangan",
        "zip_code": "3604"
    },
    {
        "id": "583",
        "province_id": "34",
        "name": "Lamut",
        "zip_code": "3605"
    },
    {
        "id": "584",
        "province_id": "34",
        "name": "Aguinaldo",
        "zip_code": "3606"
    },
    {
        "id": "585",
        "province_id": "34",
        "name": "Hingyon",
        "zip_code": "3607"
    },
    {
        "id": "586",
        "province_id": "34",
        "name": "Potia",
        "zip_code": "3608"
    },
    {
        "id": "587",
        "province_id": "34",
        "name": "Tinoc",
        "zip_code": "3609"
    },
    {
        "id": "588",
        "province_id": "34",
        "name": "Asipulo",
        "zip_code": "3610"
    },
    {
        "id": "589",
        "province_id": "35",
        "name": "Laoag City",
        "zip_code": "2900"
    },
    {
        "id": "590",
        "province_id": "35",
        "name": "San Nicolas",
        "zip_code": "2901"
    },
    {
        "id": "591",
        "province_id": "35",
        "name": "Paoay",
        "zip_code": "2902"
    },
    {
        "id": "592",
        "province_id": "35",
        "name": "Currimao",
        "zip_code": "2903"
    },
    {
        "id": "593",
        "province_id": "35",
        "name": "Badoc",
        "zip_code": "2904"
    },
    {
        "id": "594",
        "province_id": "35",
        "name": "Pinili",
        "zip_code": "2905"
    },
    {
        "id": "595",
        "province_id": "35",
        "name": "Batac",
        "zip_code": "2906"
    },
    {
        "id": "596",
        "province_id": "35",
        "name": "Marcos",
        "zip_code": "2907"
    },
    {
        "id": "597",
        "province_id": "35",
        "name": "Espiritu",
        "zip_code": "2908"
    },
    {
        "id": "598",
        "province_id": "35",
        "name": "Nueva Era",
        "zip_code": "2909"
    },
    {
        "id": "599",
        "province_id": "35",
        "name": "Solsona",
        "zip_code": "2910"
    },
    {
        "id": "600",
        "province_id": "35",
        "name": "Carasi",
        "zip_code": "2911"
    },
    {
        "id": "601",
        "province_id": "35",
        "name": "Piddig",
        "zip_code": "2912"
    },
    {
        "id": "602",
        "province_id": "35",
        "name": "Dingras",
        "zip_code": "2913"
    },
    {
        "id": "603",
        "province_id": "35",
        "name": "Sarrat",
        "zip_code": "2914"
    },
    {
        "id": "604",
        "province_id": "35",
        "name": "Vintar",
        "zip_code": "2915"
    },
    {
        "id": "605",
        "province_id": "35",
        "name": "Bacarra",
        "zip_code": "2916"
    },
    {
        "id": "606",
        "province_id": "35",
        "name": "Pasuquin",
        "zip_code": "2917"
    },
    {
        "id": "607",
        "province_id": "35",
        "name": "Burgos",
        "zip_code": "2918"
    },
    {
        "id": "608",
        "province_id": "35",
        "name": "Pagudpud",
        "zip_code": "2919"
    },
    {
        "id": "609",
        "province_id": "35",
        "name": "Bangui",
        "zip_code": "2920"
    },
    {
        "id": "610",
        "province_id": "35",
        "name": "Dumalneg",
        "zip_code": "2921"
    },
    {
        "id": "611",
        "province_id": "35",
        "name": "Adams",
        "zip_code": "2922"
    },
    {
        "id": "612",
        "province_id": "36",
        "name": "Vigan",
        "zip_code": "2700"
    },
    {
        "id": "613",
        "province_id": "36",
        "name": "Santa Catalina",
        "zip_code": "2701"
    },
    {
        "id": "614",
        "province_id": "36",
        "name": "Caoayan",
        "zip_code": "2702"
    },
    {
        "id": "615",
        "province_id": "36",
        "name": "Santa",
        "zip_code": "2703"
    },
    {
        "id": "616",
        "province_id": "36",
        "name": "Narvacan",
        "zip_code": "2704"
    },
    {
        "id": "617",
        "province_id": "36",
        "name": "Santa Maria",
        "zip_code": "2705"
    },
    {
        "id": "618",
        "province_id": "36",
        "name": "San Esteban",
        "zip_code": "2706"
    },
    {
        "id": "619",
        "province_id": "36",
        "name": "Santiago",
        "zip_code": "2707"
    },
    {
        "id": "620",
        "province_id": "36",
        "name": "Banayoyo",
        "zip_code": "2708"
    },
    {
        "id": "621",
        "province_id": "36",
        "name": "Galimuyod",
        "zip_code": "2709"
    },
    {
        "id": "622",
        "province_id": "36",
        "name": "Candon",
        "zip_code": "2710"
    },
    {
        "id": "623",
        "province_id": "36",
        "name": "Salcedo",
        "zip_code": "2711"
    },
    {
        "id": "624",
        "province_id": "36",
        "name": "Santa Lucia",
        "zip_code": "2712"
    },
    {
        "id": "625",
        "province_id": "36",
        "name": "Santa Cruz",
        "zip_code": "2713"
    },
    {
        "id": "626",
        "province_id": "36",
        "name": "Tagudin",
        "zip_code": "2714"
    },
    {
        "id": "627",
        "province_id": "36",
        "name": "Suyo",
        "zip_code": "2715"
    },
    {
        "id": "628",
        "province_id": "36",
        "name": "Alilem",
        "zip_code": "2716"
    },
    {
        "id": "629",
        "province_id": "36",
        "name": "Sugpon",
        "zip_code": "2717"
    },
    {
        "id": "630",
        "province_id": "36",
        "name": "Cervantes",
        "zip_code": "2718"
    },
    {
        "id": "631",
        "province_id": "36",
        "name": "Sicay",
        "zip_code": "2719"
    },
    {
        "id": "632",
        "province_id": "36",
        "name": "Gregorio del Pilar",
        "zip_code": "2720"
    },
    {
        "id": "633",
        "province_id": "36",
        "name": "Quirino",
        "zip_code": "2721"
    },
    {
        "id": "634",
        "province_id": "36",
        "name": "San Emilio",
        "zip_code": "2722"
    },
    {
        "id": "635",
        "province_id": "36",
        "name": "Lidlida",
        "zip_code": "2723"
    },
    {
        "id": "636",
        "province_id": "36",
        "name": "Burgos",
        "zip_code": "2724"
    },
    {
        "id": "637",
        "province_id": "36",
        "name": "Nagbukel",
        "zip_code": "2725"
    },
    {
        "id": "638",
        "province_id": "36",
        "name": "San Vicente",
        "zip_code": "2726"
    },
    {
        "id": "639",
        "province_id": "36",
        "name": "Bantay",
        "zip_code": "2727"
    },
    {
        "id": "640",
        "province_id": "36",
        "name": "San Ildefonso",
        "zip_code": "2728"
    },
    {
        "id": "641",
        "province_id": "36",
        "name": "Santo Domingo",
        "zip_code": "2729"
    },
    {
        "id": "642",
        "province_id": "36",
        "name": "Magsingal",
        "zip_code": "2730"
    },
    {
        "id": "643",
        "province_id": "36",
        "name": "San Juan",
        "zip_code": "2731"
    },
    {
        "id": "644",
        "province_id": "36",
        "name": "Cabugao",
        "zip_code": "2732"
    },
    {
        "id": "645",
        "province_id": "36",
        "name": "Sinait",
        "zip_code": "2733"
    },
    {
        "id": "646",
        "province_id": "37",
        "name": "Iloilo City",
        "zip_code": "5000"
    },
    {
        "id": "647",
        "province_id": "37",
        "name": "Pavia",
        "zip_code": "5001"
    },
    {
        "id": "648",
        "province_id": "37",
        "name": "Santa Barbara",
        "zip_code": "5002"
    },
    {
        "id": "649",
        "province_id": "37",
        "name": "Leganes",
        "zip_code": "5003"
    },
    {
        "id": "650",
        "province_id": "37",
        "name": "Zarraga",
        "zip_code": "5004"
    },
    {
        "id": "651",
        "province_id": "37",
        "name": "New Lucena",
        "zip_code": "5005"
    },
    {
        "id": "652",
        "province_id": "37",
        "name": "Dumangas",
        "zip_code": "5006"
    },
    {
        "id": "653",
        "province_id": "37",
        "name": "Barotac Nuevo",
        "zip_code": "5007"
    },
    {
        "id": "654",
        "province_id": "37",
        "name": "Pototan",
        "zip_code": "5008"
    },
    {
        "id": "655",
        "province_id": "37",
        "name": "Anilao",
        "zip_code": "5009"
    },
    {
        "id": "656",
        "province_id": "37",
        "name": "Banate",
        "zip_code": "5010"
    },
    {
        "id": "657",
        "province_id": "37",
        "name": "Barotac Viejo",
        "zip_code": "5011"
    },
    {
        "id": "658",
        "province_id": "37",
        "name": "Ajuy",
        "zip_code": "5012"
    },
    {
        "id": "659",
        "province_id": "37",
        "name": "Concepcion",
        "zip_code": "5013"
    },
    {
        "id": "660",
        "province_id": "37",
        "name": "Sara",
        "zip_code": "5014"
    },
    {
        "id": "661",
        "province_id": "37",
        "name": "San Dionisio",
        "zip_code": "5015"
    },
    {
        "id": "662",
        "province_id": "37",
        "name": "Batad",
        "zip_code": "5016"
    },
    {
        "id": "663",
        "province_id": "37",
        "name": "Estancia",
        "zip_code": "5017"
    },
    {
        "id": "664",
        "province_id": "37",
        "name": "Balasan",
        "zip_code": "5018"
    },
    {
        "id": "665",
        "province_id": "37",
        "name": "Carles",
        "zip_code": "5019"
    },
    {
        "id": "666",
        "province_id": "37",
        "name": "Oton",
        "zip_code": "5020"
    },
    {
        "id": "667",
        "province_id": "37",
        "name": "Tigbauan",
        "zip_code": "5021"
    },
    {
        "id": "668",
        "province_id": "37",
        "name": "Guimbal",
        "zip_code": "5022"
    },
    {
        "id": "669",
        "province_id": "37",
        "name": "Miagao",
        "zip_code": "5023"
    },
    {
        "id": "670",
        "province_id": "37",
        "name": "San Joaquin",
        "zip_code": "5024"
    },
    {
        "id": "671",
        "province_id": "37",
        "name": "San Miguel",
        "zip_code": "Leon"
    },
    {
        "id": "672",
        "province_id": "37",
        "name": "Tubungan",
        "zip_code": "5027"
    },
    {
        "id": "673",
        "province_id": "37",
        "name": "Alimodian",
        "zip_code": "5028"
    },
    {
        "id": "674",
        "province_id": "37",
        "name": "Igbaras",
        "zip_code": "5029"
    },
    {
        "id": "675",
        "province_id": "37",
        "name": "Maasin",
        "zip_code": "5030"
    },
    {
        "id": "676",
        "province_id": "37",
        "name": "Cabatuan",
        "zip_code": "5031"
    },
    {
        "id": "677",
        "province_id": "37",
        "name": "Mina",
        "zip_code": "5032"
    },
    {
        "id": "678",
        "province_id": "37",
        "name": "Badiangan",
        "zip_code": "5033"
    },
    {
        "id": "679",
        "province_id": "37",
        "name": "Janiuay",
        "zip_code": "5034"
    },
    {
        "id": "680",
        "province_id": "37",
        "name": "Dingle",
        "zip_code": "5035"
    },
    {
        "id": "681",
        "province_id": "37",
        "name": "San Enrique",
        "zip_code": "5036"
    },
    {
        "id": "682",
        "province_id": "37",
        "name": "Passi",
        "zip_code": "5037"
    },
    {
        "id": "683",
        "province_id": "37",
        "name": "Duenas",
        "zip_code": "5038"
    },
    {
        "id": "684",
        "province_id": "37",
        "name": "San Rafael",
        "zip_code": "5039"
    },
    {
        "id": "685",
        "province_id": "37",
        "name": "Calinog",
        "zip_code": "5040"
    },
    {
        "id": "686",
        "province_id": "37",
        "name": "Bingawan",
        "zip_code": "5041"
    },
    {
        "id": "687",
        "province_id": "37",
        "name": "Lambunao",
        "zip_code": "5042"
    },
    {
        "id": "688",
        "province_id": "37",
        "name": "Lemery",
        "zip_code": "5043"
    },
    {
        "id": "689",
        "province_id": "38",
        "name": "Ilagan",
        "zip_code": "3300"
    },
    {
        "id": "690",
        "province_id": "38",
        "name": "Gamu",
        "zip_code": "3301"
    },
    {
        "id": "691",
        "province_id": "38",
        "name": "Naguilian",
        "zip_code": "3302"
    },
    {
        "id": "692",
        "province_id": "38",
        "name": "Reina Mercedes",
        "zip_code": "3303"
    },
    {
        "id": "693",
        "province_id": "38",
        "name": "Luna",
        "zip_code": "3304"
    },
    {
        "id": "694",
        "province_id": "38",
        "name": "Cauayan",
        "zip_code": "3305"
    },
    {
        "id": "695",
        "province_id": "38",
        "name": "Alicia",
        "zip_code": "3306"
    },
    {
        "id": "696",
        "province_id": "38",
        "name": "Angadanan",
        "zip_code": "3307"
    },
    {
        "id": "697",
        "province_id": "38",
        "name": "San Guillermo",
        "zip_code": "3308"
    },
    {
        "id": "698",
        "province_id": "38",
        "name": "Echague",
        "zip_code": "3309"
    },
    {
        "id": "699",
        "province_id": "38",
        "name": "San Isidro",
        "zip_code": "3310"
    },
    {
        "id": "700",
        "province_id": "38",
        "name": "Santiago",
        "zip_code": "3311"
    },
    {
        "id": "701",
        "province_id": "38",
        "name": "Cordon",
        "zip_code": "3312"
    },
    {
        "id": "702",
        "province_id": "38",
        "name": "Jones",
        "zip_code": "3313"
    },
    {
        "id": "703",
        "province_id": "38",
        "name": "San Agustin",
        "zip_code": "3314"
    },
    {
        "id": "704",
        "province_id": "38",
        "name": "Cabatuan",
        "zip_code": "3315"
    },
    {
        "id": "705",
        "province_id": "38",
        "name": "Aurora",
        "zip_code": "3316"
    },
    {
        "id": "706",
        "province_id": "38",
        "name": "San Miguel (Callang)",
        "zip_code": "3317"
    },
    {
        "id": "707",
        "province_id": "38",
        "name": "San Mateo",
        "zip_code": "3318"
    },
    {
        "id": "708",
        "province_id": "38",
        "name": "Ramon",
        "zip_code": "3319"
    },
    {
        "id": "709",
        "province_id": "38",
        "name": "Roxas",
        "zip_code": "3320"
    },
    {
        "id": "710",
        "province_id": "38",
        "name": "Quirino",
        "zip_code": "3321"
    },
    {
        "id": "711",
        "province_id": "38",
        "name": "Burgos",
        "zip_code": "3322"
    },
    {
        "id": "712",
        "province_id": "38",
        "name": "Mallig",
        "zip_code": "3323"
    },
    {
        "id": "713",
        "province_id": "38",
        "name": "Quezon",
        "zip_code": "3324"
    },
    {
        "id": "714",
        "province_id": "38",
        "name": "Tumauini",
        "zip_code": "3325"
    },
    {
        "id": "715",
        "province_id": "38",
        "name": "Delfin Albano",
        "zip_code": "3326"
    },
    {
        "id": "716",
        "province_id": "38",
        "name": "Santo Tomas",
        "zip_code": "3327"
    },
    {
        "id": "717",
        "province_id": "38",
        "name": "Cabagan",
        "zip_code": "3328"
    },
    {
        "id": "718",
        "province_id": "38",
        "name": "San Pablo",
        "zip_code": "3329"
    },
    {
        "id": "719",
        "province_id": "38",
        "name": "Santa Maria",
        "zip_code": "3330"
    },
    {
        "id": "720",
        "province_id": "38",
        "name": "Benito Soliven",
        "zip_code": "3331"
    },
    {
        "id": "721",
        "province_id": "38",
        "name": "San Mariano",
        "zip_code": "3332"
    },
    {
        "id": "722",
        "province_id": "38",
        "name": "Maconacon",
        "zip_code": "3333"
    },
    {
        "id": "723",
        "province_id": "38",
        "name": "Palanan",
        "zip_code": "3334"
    },
    {
        "id": "724",
        "province_id": "38",
        "name": "Divilacan",
        "zip_code": "3335"
    },
    {
        "id": "725",
        "province_id": "38",
        "name": "Dinapigui",
        "zip_code": "3336"
    },
    {
        "id": "726",
        "province_id": "39",
        "name": "Tabuk",
        "zip_code": "3800"
    },
    {
        "id": "727",
        "province_id": "39",
        "name": "Balbalan",
        "zip_code": "3801"
    },
    {
        "id": "728",
        "province_id": "39",
        "name": "Lubuagan",
        "zip_code": "3802"
    },
    {
        "id": "729",
        "province_id": "39",
        "name": "Pasil",
        "zip_code": "3803"
    },
    {
        "id": "730",
        "province_id": "39",
        "name": "Tinglayan",
        "zip_code": "3804"
    },
    {
        "id": "731",
        "province_id": "39",
        "name": "Tanudan",
        "zip_code": "3805"
    },
    {
        "id": "732",
        "province_id": "39",
        "name": "Pinukpuk",
        "zip_code": "3806"
    },
    {
        "id": "733",
        "province_id": "39",
        "name": "Conner",
        "zip_code": "3807"
    },
    {
        "id": "734",
        "province_id": "39",
        "name": "Liwan (Rizal)",
        "zip_code": "3808"
    },
    {
        "id": "735",
        "province_id": "39",
        "name": "Kabugao",
        "zip_code": "3809"
    },
    {
        "id": "736",
        "province_id": "39",
        "name": "Flora",
        "zip_code": "3810"
    },
    {
        "id": "737",
        "province_id": "39",
        "name": "Santa Marcela",
        "zip_code": "3811"
    },
    {
        "id": "738",
        "province_id": "39",
        "name": "Pudtol",
        "zip_code": "3812"
    },
    {
        "id": "739",
        "province_id": "39",
        "name": "Luna",
        "zip_code": "3813"
    },
    {
        "id": "740",
        "province_id": "39",
        "name": "Calanasan",
        "zip_code": "3814"
    },
    {
        "id": "741",
        "province_id": "40",
        "name": "San Fernando",
        "zip_code": "2500"
    },
    {
        "id": "742",
        "province_id": "40",
        "name": "Bauang",
        "zip_code": "2501"
    },
    {
        "id": "743",
        "province_id": "40",
        "name": "Caba",
        "zip_code": "2502"
    },
    {
        "id": "744",
        "province_id": "40",
        "name": "Aringay",
        "zip_code": "2503"
    },
    {
        "id": "745",
        "province_id": "40",
        "name": "Agoo",
        "zip_code": "2504"
    },
    {
        "id": "746",
        "province_id": "40",
        "name": "Santo Tomas",
        "zip_code": "2505"
    },
    {
        "id": "747",
        "province_id": "40",
        "name": "Rosario",
        "zip_code": "2506"
    },
    {
        "id": "748",
        "province_id": "40",
        "name": "Damortis",
        "zip_code": "2507"
    },
    {
        "id": "749",
        "province_id": "40",
        "name": "Pugo",
        "zip_code": "2508"
    },
    {
        "id": "750",
        "province_id": "40",
        "name": "Tubao",
        "zip_code": "2509"
    },
    {
        "id": "751",
        "province_id": "40",
        "name": "Burgos",
        "zip_code": "2510"
    },
    {
        "id": "752",
        "province_id": "40",
        "name": "Naguilian",
        "zip_code": "2511"
    },
    {
        "id": "753",
        "province_id": "40",
        "name": "Bagulin",
        "zip_code": "2512"
    },
    {
        "id": "754",
        "province_id": "40",
        "name": "San Gabriel",
        "zip_code": "2513"
    },
    {
        "id": "755",
        "province_id": "40",
        "name": "San Juan",
        "zip_code": "2514"
    },
    {
        "id": "756",
        "province_id": "40",
        "name": "Bacnotan",
        "zip_code": "2515"
    },
    {
        "id": "757",
        "province_id": "40",
        "name": "Santol",
        "zip_code": "2516"
    },
    {
        "id": "758",
        "province_id": "40",
        "name": "Balaoan",
        "zip_code": "2517"
    },
    {
        "id": "759",
        "province_id": "40",
        "name": "Luna",
        "zip_code": "2518"
    },
    {
        "id": "760",
        "province_id": "40",
        "name": "Bangar",
        "zip_code": "2519"
    },
    {
        "id": "761",
        "province_id": "41",
        "name": "San Pablo City",
        "zip_code": "4000"
    },
    {
        "id": "762",
        "province_id": "41",
        "name": "Alaminos",
        "zip_code": "4001"
    },
    {
        "id": "763",
        "province_id": "41",
        "name": "Nagcarlan",
        "zip_code": "4002"
    },
    {
        "id": "764",
        "province_id": "41",
        "name": "Rizal",
        "zip_code": "4003"
    },
    {
        "id": "765",
        "province_id": "41",
        "name": "Liliw",
        "zip_code": "4004"
    },
    {
        "id": "766",
        "province_id": "41",
        "name": "Majayjay",
        "zip_code": "4005"
    },
    {
        "id": "767",
        "province_id": "41",
        "name": "Botocan",
        "zip_code": "4006"
    },
    {
        "id": "768",
        "province_id": "41",
        "name": "Magdalena",
        "zip_code": "4007"
    },
    {
        "id": "769",
        "province_id": "41",
        "name": "Pagsanjan",
        "zip_code": "4008"
    },
    {
        "id": "770",
        "province_id": "41",
        "name": "Santa Cruz",
        "zip_code": "4009"
    },
    {
        "id": "771",
        "province_id": "41",
        "name": "Pila",
        "zip_code": "4010"
    },
    {
        "id": "772",
        "province_id": "41",
        "name": "Victoria",
        "zip_code": "4011"
    },
    {
        "id": "773",
        "province_id": "41",
        "name": "Calauan",
        "zip_code": "4012"
    },
    {
        "id": "774",
        "province_id": "41",
        "name": "Cavinti",
        "zip_code": "4013"
    },
    {
        "id": "775",
        "province_id": "41",
        "name": "Lumban",
        "zip_code": "4014"
    },
    {
        "id": "776",
        "province_id": "41",
        "name": "Kalayaan",
        "zip_code": "4015"
    },
    {
        "id": "777",
        "province_id": "41",
        "name": "Paete",
        "zip_code": "4016"
    },
    {
        "id": "778",
        "province_id": "41",
        "name": "Pakil",
        "zip_code": "4017"
    },
    {
        "id": "779",
        "province_id": "41",
        "name": "Pangil",
        "zip_code": "4018"
    },
    {
        "id": "780",
        "province_id": "41",
        "name": "Siniloan",
        "zip_code": "4019"
    },
    {
        "id": "781",
        "province_id": "41",
        "name": "Mabitac",
        "zip_code": "4020"
    },
    {
        "id": "782",
        "province_id": "41",
        "name": "Famy",
        "zip_code": "4021"
    },
    {
        "id": "783",
        "province_id": "41",
        "name": "Santa Maria",
        "zip_code": "4022"
    },
    {
        "id": "784",
        "province_id": "41",
        "name": "San Pedro",
        "zip_code": "4023"
    },
    {
        "id": "785",
        "province_id": "41",
        "name": "Binan",
        "zip_code": "4024"
    },
    {
        "id": "786",
        "province_id": "41",
        "name": "Cabuyao",
        "zip_code": "4025"
    },
    {
        "id": "787",
        "province_id": "41",
        "name": "Santa Rosa",
        "zip_code": "4026"
    },
    {
        "id": "788",
        "province_id": "41",
        "name": "Calamba",
        "zip_code": "4027"
    },
    {
        "id": "789",
        "province_id": "41",
        "name": "Canlubang",
        "zip_code": "4028"
    },
    {
        "id": "790",
        "province_id": "41",
        "name": "Camp Vicente Lim",
        "zip_code": "4029"
    },
    {
        "id": "791",
        "province_id": "41",
        "name": "Los Banos",
        "zip_code": "4030"
    },
    {
        "id": "792",
        "province_id": "41",
        "name": "College Los Banos",
        "zip_code": "4031"
    },
    {
        "id": "793",
        "province_id": "41",
        "name": "Luisiana",
        "zip_code": "4032"
    },
    {
        "id": "794",
        "province_id": "41",
        "name": "Bay",
        "zip_code": "4033"
    },
    {
        "id": "795",
        "province_id": "42",
        "name": "Iligan City",
        "zip_code": "9200"
    },
    {
        "id": "796",
        "province_id": "42",
        "name": "Linamon",
        "zip_code": "9201"
    },
    {
        "id": "797",
        "province_id": "42",
        "name": "Kauswagan",
        "zip_code": "9202"
    },
    {
        "id": "798",
        "province_id": "42",
        "name": "Matungao",
        "zip_code": "9203"
    },
    {
        "id": "799",
        "province_id": "42",
        "name": "Poona Piagapo",
        "zip_code": "9204"
    },
    {
        "id": "800",
        "province_id": "42",
        "name": "Bacolod",
        "zip_code": "9205"
    },
    {
        "id": "801",
        "province_id": "42",
        "name": "Maigo",
        "zip_code": "9206"
    },
    {
        "id": "802",
        "province_id": "42",
        "name": "Kolambugan",
        "zip_code": "9207"
    },
    {
        "id": "803",
        "province_id": "42",
        "name": "Pantao Ragat",
        "zip_code": "9208"
    },
    {
        "id": "804",
        "province_id": "42",
        "name": "Tubod",
        "zip_code": "9209"
    },
    {
        "id": "805",
        "province_id": "42",
        "name": "Baroy",
        "zip_code": "9210"
    },
    {
        "id": "806",
        "province_id": "42",
        "name": "Lala",
        "zip_code": "9211"
    },
    {
        "id": "807",
        "province_id": "42",
        "name": "Salvador",
        "zip_code": "9212"
    },
    {
        "id": "808",
        "province_id": "42",
        "name": "Sapad",
        "zip_code": "9213"
    },
    {
        "id": "809",
        "province_id": "42",
        "name": "Kapatagan",
        "zip_code": "9214"
    },
    {
        "id": "810",
        "province_id": "42",
        "name": "Karomatan",
        "zip_code": "9215"
    },
    {
        "id": "811",
        "province_id": "42",
        "name": "Nunungan",
        "zip_code": "9216"
    },
    {
        "id": "812",
        "province_id": "42",
        "name": "Baloi",
        "zip_code": "9217"
    },
    {
        "id": "813",
        "province_id": "42",
        "name": "Pantar",
        "zip_code": "9218"
    },
    {
        "id": "814",
        "province_id": "42",
        "name": "Munai",
        "zip_code": "9219"
    },
    {
        "id": "815",
        "province_id": "42",
        "name": "Tangkal",
        "zip_code": "9220"
    },
    {
        "id": "816",
        "province_id": "42",
        "name": "Magsaysay",
        "zip_code": "9221"
    },
    {
        "id": "817",
        "province_id": "42",
        "name": "Tagoloan",
        "zip_code": "9222"
    },
    {
        "id": "818",
        "province_id": "42",
        "name": "Sultan Nage Di Maporo",
        "zip_code": "9223"
    },
    {
        "id": "819",
        "province_id": "43",
        "name": "Malabang",
        "zip_code": "9300"
    },
    {
        "id": "820",
        "province_id": "43",
        "name": "Sultan Gumander",
        "zip_code": "9301"
    },
    {
        "id": "821",
        "province_id": "43",
        "name": "Balabagan",
        "zip_code": "9302"
    },
    {
        "id": "822",
        "province_id": "43",
        "name": "Maragong",
        "zip_code": "9303"
    },
    {
        "id": "823",
        "province_id": "43",
        "name": "Maragong",
        "zip_code": "9303"
    },
    {
        "id": "824",
        "province_id": "43",
        "name": "Tubaran",
        "zip_code": "9304"
    },
    {
        "id": "825",
        "province_id": "43",
        "name": "Butig",
        "zip_code": "9305"
    },
    {
        "id": "826",
        "province_id": "43",
        "name": "Lumbayanague",
        "zip_code": "9306"
    },
    {
        "id": "827",
        "province_id": "43",
        "name": "Lumbatan",
        "zip_code": "9307"
    },
    {
        "id": "828",
        "province_id": "43",
        "name": "Macador Andong",
        "zip_code": "9308"
    },
    {
        "id": "829",
        "province_id": "43",
        "name": "Bayang",
        "zip_code": "9309"
    },
    {
        "id": "830",
        "province_id": "43",
        "name": "Binidayan",
        "zip_code": "9310"
    },
    {
        "id": "831",
        "province_id": "43",
        "name": "Ganassi",
        "zip_code": "9311"
    },
    {
        "id": "832",
        "province_id": "43",
        "name": "Pagayawan",
        "zip_code": "9312"
    },
    {
        "id": "833",
        "province_id": "43",
        "name": "Pualas",
        "zip_code": "9313"
    },
    {
        "id": "834",
        "province_id": "43",
        "name": "Madamba",
        "zip_code": "9314"
    },
    {
        "id": "835",
        "province_id": "43",
        "name": "Madalum",
        "zip_code": "9315"
    },
    {
        "id": "836",
        "province_id": "43",
        "name": "Bacolod Grande",
        "zip_code": "9316"
    },
    {
        "id": "837",
        "province_id": "43",
        "name": "Tugaya",
        "zip_code": "9317"
    },
    {
        "id": "838",
        "province_id": "43",
        "name": "Balindong",
        "zip_code": "9318"
    },
    {
        "id": "839",
        "province_id": "43",
        "name": "Calanogas",
        "zip_code": "9319"
    },
    {
        "id": "840",
        "province_id": "43",
        "name": "Bumbaran",
        "zip_code": "9320"
    },
    {
        "id": "841",
        "province_id": "43",
        "name": "Tagoloan ‚Äì II",
        "zip_code": "9321"
    },
    {
        "id": "842",
        "province_id": "43",
        "name": "Marawi City",
        "zip_code": "9700"
    },
    {
        "id": "843",
        "province_id": "43",
        "name": "Saguiaran",
        "zip_code": "9701"
    },
    {
        "id": "844",
        "province_id": "43",
        "name": "Mulondo",
        "zip_code": "9702"
    },
    {
        "id": "845",
        "province_id": "43",
        "name": "Lumba Bayabao",
        "zip_code": "9703"
    },
    {
        "id": "846",
        "province_id": "43",
        "name": "Tamparan",
        "zip_code": "9704"
    },
    {
        "id": "847",
        "province_id": "43",
        "name": "Poona Bayabao",
        "zip_code": "9705"
    },
    {
        "id": "848",
        "province_id": "43",
        "name": "Masiu",
        "zip_code": "9706"
    },
    {
        "id": "849",
        "province_id": "43",
        "name": "Bubong",
        "zip_code": "9708"
    },
    {
        "id": "850",
        "province_id": "43",
        "name": "Kapai",
        "zip_code": "9709"
    },
    {
        "id": "851",
        "province_id": "43",
        "name": "Piagapo",
        "zip_code": "9710"
    },
    {
        "id": "852",
        "province_id": "43",
        "name": "Marantao",
        "zip_code": "9711"
    },
    {
        "id": "853",
        "province_id": "43",
        "name": "Taraka",
        "zip_code": "9712"
    },
    {
        "id": "854",
        "province_id": "43",
        "name": "Ramain-Ditsaan",
        "zip_code": "9713"
    },
    {
        "id": "855",
        "province_id": "43",
        "name": "Buadiposo Buntong",
        "zip_code": "9714"
    },
    {
        "id": "856",
        "province_id": "43",
        "name": "Maguing",
        "zip_code": "9715"
    },
    {
        "id": "857",
        "province_id": "43",
        "name": "Wao",
        "zip_code": "9716"
    },
    {
        "id": "858",
        "province_id": "44",
        "name": "Tacloban City",
        "zip_code": "6500"
    },
    {
        "id": "859",
        "province_id": "44",
        "name": "Palo",
        "zip_code": "6501"
    },
    {
        "id": "860",
        "province_id": "44",
        "name": "Tanauan",
        "zip_code": "6502"
    },
    {
        "id": "861",
        "province_id": "44",
        "name": "Tolosa",
        "zip_code": "6503"
    },
    {
        "id": "862",
        "province_id": "44",
        "name": "Tabontabon",
        "zip_code": "6504"
    },
    {
        "id": "863",
        "province_id": "44",
        "name": "Dulag",
        "zip_code": "6505"
    },
    {
        "id": "864",
        "province_id": "44",
        "name": "Julita",
        "zip_code": "6506"
    },
    {
        "id": "865",
        "province_id": "44",
        "name": "Mayorga",
        "zip_code": "6507"
    },
    {
        "id": "866",
        "province_id": "44",
        "name": "La Paz",
        "zip_code": "6508"
    },
    {
        "id": "867",
        "province_id": "44",
        "name": "MacArthur",
        "zip_code": "6509"
    },
    {
        "id": "868",
        "province_id": "44",
        "name": "Abuyog",
        "zip_code": "6510"
    },
    {
        "id": "869",
        "province_id": "44",
        "name": "Javier",
        "zip_code": "6511"
    },
    {
        "id": "870",
        "province_id": "44",
        "name": "Mahaplag",
        "zip_code": "6512"
    },
    {
        "id": "871",
        "province_id": "44",
        "name": "Santa Fe",
        "zip_code": "6513"
    },
    {
        "id": "872",
        "province_id": "44",
        "name": "Pastrana",
        "zip_code": "6514"
    },
    {
        "id": "873",
        "province_id": "44",
        "name": "Dagami",
        "zip_code": "6515"
    },
    {
        "id": "874",
        "province_id": "44",
        "name": "Burauen",
        "zip_code": "6516"
    },
    {
        "id": "875",
        "province_id": "44",
        "name": "Alangalang",
        "zip_code": "6517"
    },
    {
        "id": "876",
        "province_id": "44",
        "name": "San Miguel",
        "zip_code": "6518"
    },
    {
        "id": "877",
        "province_id": "44",
        "name": "Barugo",
        "zip_code": "6519"
    },
    {
        "id": "878",
        "province_id": "44",
        "name": "Babatngon",
        "zip_code": "6520"
    },
    {
        "id": "879",
        "province_id": "44",
        "name": "Baybay",
        "zip_code": "6521"
    },
    {
        "id": "880",
        "province_id": "44",
        "name": "Inopacan",
        "zip_code": "6522"
    },
    {
        "id": "881",
        "province_id": "44",
        "name": "Hindang",
        "zip_code": "6523"
    },
    {
        "id": "882",
        "province_id": "44",
        "name": "Hilongos",
        "zip_code": "6524"
    },
    {
        "id": "883",
        "province_id": "44",
        "name": "Bato",
        "zip_code": "6525"
    },
    {
        "id": "884",
        "province_id": "44",
        "name": "Matalom",
        "zip_code": "6526"
    },
    {
        "id": "885",
        "province_id": "44",
        "name": "Jaro",
        "zip_code": "6527"
    },
    {
        "id": "886",
        "province_id": "44",
        "name": "Tunga",
        "zip_code": "6528"
    },
    {
        "id": "887",
        "province_id": "44",
        "name": "Carigara",
        "zip_code": "6529"
    },
    {
        "id": "888",
        "province_id": "44",
        "name": "Capoocan",
        "zip_code": "6530"
    },
    {
        "id": "889",
        "province_id": "44",
        "name": "Kananga",
        "zip_code": "6531"
    },
    {
        "id": "890",
        "province_id": "44",
        "name": "Matag-ob",
        "zip_code": "6532"
    },
    {
        "id": "891",
        "province_id": "44",
        "name": "Leyte",
        "zip_code": "6533"
    },
    {
        "id": "892",
        "province_id": "44",
        "name": "Calubian",
        "zip_code": "6534"
    },
    {
        "id": "893",
        "province_id": "44",
        "name": "San Isidro",
        "zip_code": "6535"
    },
    {
        "id": "894",
        "province_id": "44",
        "name": "Tabango",
        "zip_code": "6536"
    },
    {
        "id": "895",
        "province_id": "44",
        "name": "Villaba",
        "zip_code": "6537"
    },
    {
        "id": "896",
        "province_id": "44",
        "name": "Palompon",
        "zip_code": "6538"
    },
    {
        "id": "897",
        "province_id": "44",
        "name": "Isabel",
        "zip_code": "6539"
    },
    {
        "id": "898",
        "province_id": "44",
        "name": "Merida",
        "zip_code": "6540"
    },
    {
        "id": "899",
        "province_id": "44",
        "name": "Ormoc City",
        "zip_code": "6541"
    },
    {
        "id": "900",
        "province_id": "44",
        "name": "Albuera",
        "zip_code": "6542"
    },
    {
        "id": "901",
        "province_id": "45",
        "name": "Cotabato City",
        "zip_code": "9600"
    },
    {
        "id": "902",
        "province_id": "45",
        "name": "Datu Odin Sinsuat (Dinaig)",
        "zip_code": "9601"
    },
    {
        "id": "903",
        "province_id": "45",
        "name": "Upi",
        "zip_code": "9602"
    },
    {
        "id": "904",
        "province_id": "45",
        "name": "South Upi",
        "zip_code": "9603"
    },
    {
        "id": "905",
        "province_id": "45",
        "name": "Parang",
        "zip_code": "9604"
    },
    {
        "id": "906",
        "province_id": "45",
        "name": "Sultan Kudarat",
        "zip_code": "9605"
    },
    {
        "id": "907",
        "province_id": "45",
        "name": "Kabuntulan",
        "zip_code": "9606"
    },
    {
        "id": "908",
        "province_id": "45",
        "name": "Datu Piang",
        "zip_code": "9607"
    },
    {
        "id": "909",
        "province_id": "45",
        "name": "Maganoy",
        "zip_code": "9608"
    },
    {
        "id": "910",
        "province_id": "45",
        "name": "Ampatuan",
        "zip_code": "9609"
    },
    {
        "id": "911",
        "province_id": "45",
        "name": "Pagalungan",
        "zip_code": "9610"
    },
    {
        "id": "912",
        "province_id": "45",
        "name": "Sultan sa Barongis",
        "zip_code": "9611"
    },
    {
        "id": "913",
        "province_id": "45",
        "name": "Talayan",
        "zip_code": "9612"
    },
    {
        "id": "914",
        "province_id": "45",
        "name": "Matanog",
        "zip_code": "9613"
    },
    {
        "id": "915",
        "province_id": "45",
        "name": "Barira",
        "zip_code": "9614"
    },
    {
        "id": "916",
        "province_id": "45",
        "name": "Buldon",
        "zip_code": "9615"
    },
    {
        "id": "917",
        "province_id": "45",
        "name": "Buluan",
        "zip_code": "9616"
    },
    {
        "id": "918",
        "province_id": "45",
        "name": "Datu Paglas",
        "zip_code": "9617"
    },
    {
        "id": "919",
        "province_id": "45",
        "name": "Gen. S.K. Datun",
        "zip_code": "9618"
    },
    {
        "id": "920",
        "province_id": "45",
        "name": "Sharif Aguak",
        "zip_code": "9619"
    },
    {
        "id": "921",
        "province_id": "46",
        "name": "Boac",
        "zip_code": "4900"
    },
    {
        "id": "922",
        "province_id": "46",
        "name": "Mogpog",
        "zip_code": "4901"
    },
    {
        "id": "923",
        "province_id": "46",
        "name": "Santa Cruz",
        "zip_code": "4902"
    },
    {
        "id": "924",
        "province_id": "46",
        "name": "Torrijos",
        "zip_code": "4903"
    },
    {
        "id": "925",
        "province_id": "46",
        "name": "Buenavista",
        "zip_code": "4904"
    },
    {
        "id": "926",
        "province_id": "46",
        "name": "Gasan",
        "zip_code": "4905"
    },
    {
        "id": "927",
        "province_id": "47",
        "name": "Masbate City",
        "zip_code": "5400"
    },
    {
        "id": "928",
        "province_id": "47",
        "name": "Mobo",
        "zip_code": "5401"
    },
    {
        "id": "929",
        "province_id": "47",
        "name": "Uson",
        "zip_code": "5402"
    },
    {
        "id": "930",
        "province_id": "47",
        "name": "Dimasalang",
        "zip_code": "5403"
    },
    {
        "id": "931",
        "province_id": "47",
        "name": "Palanas",
        "zip_code": "5404"
    },
    {
        "id": "932",
        "province_id": "47",
        "name": "Cataingan",
        "zip_code": "5405"
    },
    {
        "id": "933",
        "province_id": "47",
        "name": "Pio V. Corpuz",
        "zip_code": "5406"
    },
    {
        "id": "934",
        "province_id": "47",
        "name": "Esperanza",
        "zip_code": "5407"
    },
    {
        "id": "935",
        "province_id": "47",
        "name": "Placer",
        "zip_code": "5408"
    },
    {
        "id": "936",
        "province_id": "47",
        "name": "Cawayan",
        "zip_code": "5409"
    },
    {
        "id": "937",
        "province_id": "47",
        "name": "Milagros",
        "zip_code": "5410"
    },
    {
        "id": "938",
        "province_id": "47",
        "name": "Mandaon",
        "zip_code": "5411"
    },
    {
        "id": "939",
        "province_id": "47",
        "name": "Balud",
        "zip_code": "5412"
    },
    {
        "id": "940",
        "province_id": "47",
        "name": "Baleno",
        "zip_code": "5413"
    },
    {
        "id": "941",
        "province_id": "47",
        "name": "Aroroy",
        "zip_code": "5414"
    },
    {
        "id": "942",
        "province_id": "47",
        "name": "Batuan",
        "zip_code": "5415"
    },
    {
        "id": "943",
        "province_id": "47",
        "name": "San Fernando",
        "zip_code": "5416"
    },
    {
        "id": "944",
        "province_id": "47",
        "name": "San Jacinto",
        "zip_code": "5417"
    },
    {
        "id": "945",
        "province_id": "47",
        "name": "Montreal",
        "zip_code": "5418"
    },
    {
        "id": "946",
        "province_id": "47",
        "name": "Claveria",
        "zip_code": "5419"
    },
    {
        "id": "947",
        "province_id": "47",
        "name": "San Pascual",
        "zip_code": "5420"
    },
    {
        "id": "948",
        "province_id": "47",
        "name": "Buenavista",
        "zip_code": "5421"
    },
    {
        "id": "949",
        "province_id": "47",
        "name": "Buenavista",
        "zip_code": "5421"
    },
    {
        "id": "950",
        "province_id": "47",
        "name": "Buenavista",
        "zip_code": "5421"
    },
    {
        "id": "951",
        "province_id": "81",
        "name": "Manila Bulletin",
        "zip_code": "900"
    },
    {
        "id": "952",
        "province_id": "81",
        "name": "Phil. Union College",
        "zip_code": "901"
    },
    {
        "id": "953",
        "province_id": "81",
        "name": "Far East Broadcasting Corporation",
        "zip_code": "902"
    },
    {
        "id": "954",
        "province_id": "81",
        "name": "Manila Hilton",
        "zip_code": "903"
    },
    {
        "id": "955",
        "province_id": "81",
        "name": "Midland Hotel",
        "zip_code": "904"
    },
    {
        "id": "956",
        "province_id": "48",
        "name": "Ozamis City",
        "zip_code": "7200"
    },
    {
        "id": "957",
        "province_id": "48",
        "name": "Clarin",
        "zip_code": "7201"
    },
    {
        "id": "958",
        "province_id": "48",
        "name": "Tudela",
        "zip_code": "7202"
    },
    {
        "id": "959",
        "province_id": "48",
        "name": "Sinabacan",
        "zip_code": "7203"
    },
    {
        "id": "960",
        "province_id": "48",
        "name": "Jimenez",
        "zip_code": "7204"
    },
    {
        "id": "961",
        "province_id": "48",
        "name": "Panaon",
        "zip_code": "7205"
    },
    {
        "id": "962",
        "province_id": "48",
        "name": "Aloran",
        "zip_code": "7206"
    },
    {
        "id": "963",
        "province_id": "48",
        "name": "Oroquieta City",
        "zip_code": "7207"
    },
    {
        "id": "964",
        "province_id": "48",
        "name": "Lopez Jaena",
        "zip_code": "7208"
    },
    {
        "id": "965",
        "province_id": "48",
        "name": "Plaridel",
        "zip_code": "7209"
    },
    {
        "id": "966",
        "province_id": "48",
        "name": "Calamba",
        "zip_code": "7210"
    },
    {
        "id": "967",
        "province_id": "48",
        "name": "Baliangao",
        "zip_code": "7211"
    },
    {
        "id": "968",
        "province_id": "48",
        "name": "Sapang Dalaga",
        "zip_code": "7212"
    },
    {
        "id": "969",
        "province_id": "48",
        "name": "Concepcion",
        "zip_code": "7213"
    },
    {
        "id": "970",
        "province_id": "48",
        "name": "Tangub City",
        "zip_code": "7214"
    },
    {
        "id": "971",
        "province_id": "48",
        "name": "Bonifacio",
        "zip_code": "7215"
    },
    {
        "id": "972",
        "province_id": "49",
        "name": "Cagayan de Oro City",
        "zip_code": "9000"
    },
    {
        "id": "973",
        "province_id": "49",
        "name": "Tagoloan",
        "zip_code": "9001"
    },
    {
        "id": "974",
        "province_id": "49",
        "name": "Villanueva",
        "zip_code": "9002"
    },
    {
        "id": "975",
        "province_id": "49",
        "name": "Jasaan",
        "zip_code": "9003"
    },
    {
        "id": "976",
        "province_id": "49",
        "name": "Claveria",
        "zip_code": "9004"
    },
    {
        "id": "977",
        "province_id": "49",
        "name": "Balingasag",
        "zip_code": "9005"
    },
    {
        "id": "978",
        "province_id": "49",
        "name": "Lagonglong",
        "zip_code": "9006"
    },
    {
        "id": "979",
        "province_id": "49",
        "name": "Salay",
        "zip_code": "9007"
    },
    {
        "id": "980",
        "province_id": "49",
        "name": "Binuangan",
        "zip_code": "9008"
    },
    {
        "id": "981",
        "province_id": "49",
        "name": "Subongcogon",
        "zip_code": "9009"
    },
    {
        "id": "982",
        "province_id": "49",
        "name": "Kinogitan",
        "zip_code": "9010"
    },
    {
        "id": "983",
        "province_id": "49",
        "name": "Balinguan",
        "zip_code": "9011"
    },
    {
        "id": "984",
        "province_id": "49",
        "name": "Talisayan",
        "zip_code": "9012"
    },
    {
        "id": "985",
        "province_id": "49",
        "name": "Medina",
        "zip_code": "9013"
    },
    {
        "id": "986",
        "province_id": "49",
        "name": "Gingoog City",
        "zip_code": "9014"
    },
    {
        "id": "987",
        "province_id": "49",
        "name": "Magsaysay",
        "zip_code": "9015"
    },
    {
        "id": "988",
        "province_id": "49",
        "name": "Opol",
        "zip_code": "9016"
    },
    {
        "id": "989",
        "province_id": "49",
        "name": "El Salvador",
        "zip_code": "9017"
    },
    {
        "id": "990",
        "province_id": "49",
        "name": "Alubijid",
        "zip_code": "9018"
    },
    {
        "id": "991",
        "province_id": "49",
        "name": "Laguidingan",
        "zip_code": "9019"
    },
    {
        "id": "992",
        "province_id": "49",
        "name": "Gitagum",
        "zip_code": "9020"
    },
    {
        "id": "993",
        "province_id": "49",
        "name": "Libertad",
        "zip_code": "9021"
    },
    {
        "id": "994",
        "province_id": "49",
        "name": "Initao",
        "zip_code": "9022"
    },
    {
        "id": "995",
        "province_id": "49",
        "name": "Naawan",
        "zip_code": "9023"
    },
    {
        "id": "996",
        "province_id": "49",
        "name": "Manticao",
        "zip_code": "9024"
    },
    {
        "id": "997",
        "province_id": "49",
        "name": "Lugait",
        "zip_code": "9025"
    },
    {
        "id": "998",
        "province_id": "50",
        "name": "Bontoc",
        "zip_code": "2616"
    },
    {
        "id": "999",
        "province_id": "50",
        "name": "Sadanga",
        "zip_code": "2617"
    },
    {
        "id": "1000",
        "province_id": "50",
        "name": "Besao",
        "zip_code": "2618"
    },
    {
        "id": "1001",
        "province_id": "50",
        "name": "Sagada",
        "zip_code": "2619"
    },
    {
        "id": "1002",
        "province_id": "50",
        "name": "Tadian",
        "zip_code": "2620"
    },
    {
        "id": "1003",
        "province_id": "50",
        "name": "Bauko",
        "zip_code": "2621"
    },
    {
        "id": "1004",
        "province_id": "50",
        "name": "Sabangan",
        "zip_code": "2622"
    },
    {
        "id": "1005",
        "province_id": "50",
        "name": "Barlig",
        "zip_code": "2623"
    },
    {
        "id": "1006",
        "province_id": "50",
        "name": "Natonin",
        "zip_code": "2624"
    },
    {
        "id": "1007",
        "province_id": "50",
        "name": "Paracelis",
        "zip_code": "2625"
    },
    {
        "id": "1008",
        "province_id": "51",
        "name": "Bacolod City",
        "zip_code": "6100"
    },
    {
        "id": "1009",
        "province_id": "51",
        "name": "Bago City",
        "zip_code": "6101"
    },
    {
        "id": "1010",
        "province_id": "51",
        "name": "Pulupandan",
        "zip_code": "6102"
    },
    {
        "id": "1011",
        "province_id": "51",
        "name": "Valladolid",
        "zip_code": "6103"
    },
    {
        "id": "1012",
        "province_id": "51",
        "name": "San Enrique",
        "zip_code": "6104"
    },
    {
        "id": "1013",
        "province_id": "51",
        "name": "Pontevedra",
        "zip_code": "6105"
    },
    {
        "id": "1014",
        "province_id": "51",
        "name": "Hinigaran",
        "zip_code": "6106"
    },
    {
        "id": "1015",
        "province_id": "51",
        "name": "Binalbagan",
        "zip_code": "6107"
    },
    {
        "id": "1016",
        "province_id": "51",
        "name": "Himamaylan",
        "zip_code": "6108"
    },
    {
        "id": "1017",
        "province_id": "51",
        "name": "Ilog",
        "zip_code": "6109"
    },
    {
        "id": "1018",
        "province_id": "51",
        "name": "Candoni",
        "zip_code": "6110"
    },
    {
        "id": "1019",
        "province_id": "51",
        "name": "Kabangkalan",
        "zip_code": "6111"
    },
    {
        "id": "1020",
        "province_id": "51",
        "name": "Kauayan",
        "zip_code": "6112"
    },
    {
        "id": "1021",
        "province_id": "51",
        "name": "Sipalay",
        "zip_code": "6113"
    },
    {
        "id": "1022",
        "province_id": "51",
        "name": "Hinoba-an",
        "zip_code": "6114"
    },
    {
        "id": "1023",
        "province_id": "51",
        "name": "Talisay",
        "zip_code": "6115"
    },
    {
        "id": "1024",
        "province_id": "51",
        "name": "Silay City",
        "zip_code": "6116"
    },
    {
        "id": "1025",
        "province_id": "51",
        "name": "Silay Hawaiian Central",
        "zip_code": "6117"
    },
    {
        "id": "1026",
        "province_id": "51",
        "name": "Enrique Magalona",
        "zip_code": "6118"
    },
    {
        "id": "1027",
        "province_id": "51",
        "name": "Victorias",
        "zip_code": "6119"
    },
    {
        "id": "1028",
        "province_id": "51",
        "name": "Manapla",
        "zip_code": "6120"
    },
    {
        "id": "1029",
        "province_id": "51",
        "name": "Cadiz City",
        "zip_code": "6121"
    },
    {
        "id": "1030",
        "province_id": "51",
        "name": "Sagay",
        "zip_code": "6122"
    },
    {
        "id": "1031",
        "province_id": "51",
        "name": "Paraiso (Fabrica)",
        "zip_code": "6123"
    },
    {
        "id": "1032",
        "province_id": "51",
        "name": "Escalante",
        "zip_code": "6124"
    },
    {
        "id": "1033",
        "province_id": "51",
        "name": "Toboso",
        "zip_code": "6125"
    },
    {
        "id": "1034",
        "province_id": "51",
        "name": "Calatrava",
        "zip_code": "6126"
    },
    {
        "id": "1035",
        "province_id": "51",
        "name": "San Carlos City",
        "zip_code": "6127"
    },
    {
        "id": "1036",
        "province_id": "51",
        "name": "Isabela",
        "zip_code": "6128"
    },
    {
        "id": "1037",
        "province_id": "51",
        "name": "Murcia",
        "zip_code": "6129"
    },
    {
        "id": "1038",
        "province_id": "51",
        "name": "La Carlota City",
        "zip_code": "6130"
    },
    {
        "id": "1039",
        "province_id": "51",
        "name": "La Castillana",
        "zip_code": "6131"
    },
    {
        "id": "1040",
        "province_id": "51",
        "name": "Moises Padilla",
        "zip_code": "6132"
    },
    {
        "id": "1041",
        "province_id": "52",
        "name": "Dumaguete City",
        "zip_code": "6200"
    },
    {
        "id": "1042",
        "province_id": "52",
        "name": "Sibulan",
        "zip_code": "6201"
    },
    {
        "id": "1043",
        "province_id": "52",
        "name": "San Jose",
        "zip_code": "6202"
    },
    {
        "id": "1044",
        "province_id": "52",
        "name": "Amlan",
        "zip_code": "6203"
    },
    {
        "id": "1045",
        "province_id": "52",
        "name": "Tanjay",
        "zip_code": "6204"
    },
    {
        "id": "1046",
        "province_id": "52",
        "name": "Pamplona",
        "zip_code": "6205"
    },
    {
        "id": "1047",
        "province_id": "52",
        "name": "Bais City",
        "zip_code": "6206"
    },
    {
        "id": "1048",
        "province_id": "52",
        "name": "Mabinay",
        "zip_code": "6207"
    },
    {
        "id": "1049",
        "province_id": "52",
        "name": "Manjuyod",
        "zip_code": "6208"
    },
    {
        "id": "1050",
        "province_id": "52",
        "name": "Bindoy",
        "zip_code": "6209"
    },
    {
        "id": "1051",
        "province_id": "52",
        "name": "Ayungon",
        "zip_code": "6210"
    },
    {
        "id": "1052",
        "province_id": "52",
        "name": "Tayasan",
        "zip_code": "6211"
    },
    {
        "id": "1053",
        "province_id": "52",
        "name": "Jimalalud",
        "zip_code": "6212"
    },
    {
        "id": "1054",
        "province_id": "52",
        "name": "La Libertad",
        "zip_code": "6213"
    },
    {
        "id": "1055",
        "province_id": "52",
        "name": "Guihulngan",
        "zip_code": "6214"
    },
    {
        "id": "1056",
        "province_id": "52",
        "name": "Valencia",
        "zip_code": "6215"
    },
    {
        "id": "1057",
        "province_id": "52",
        "name": "Bacung",
        "zip_code": "6216"
    },
    {
        "id": "1058",
        "province_id": "52",
        "name": "Dauin",
        "zip_code": "6217"
    },
    {
        "id": "1059",
        "province_id": "52",
        "name": "Zamboanguita",
        "zip_code": "6218"
    },
    {
        "id": "1060",
        "province_id": "52",
        "name": "Siaton",
        "zip_code": "6219"
    },
    {
        "id": "1061",
        "province_id": "52",
        "name": "Sta. Catalina",
        "zip_code": "6220"
    },
    {
        "id": "1062",
        "province_id": "52",
        "name": "Bayawan",
        "zip_code": "6221"
    },
    {
        "id": "1063",
        "province_id": "52",
        "name": "Basay",
        "zip_code": "6222"
    },
    {
        "id": "1064",
        "province_id": "52",
        "name": "Canlaon City",
        "zip_code": "6223"
    },
    {
        "id": "1065",
        "province_id": "52",
        "name": "Valle Hermoso",
        "zip_code": "6224"
    },
    {
        "id": "1066",
        "province_id": "53",
        "name": "Catarman",
        "zip_code": "6400"
    },
    {
        "id": "1067",
        "province_id": "53",
        "name": "Bobon",
        "zip_code": "6401"
    },
    {
        "id": "1068",
        "province_id": "53",
        "name": "San Jose",
        "zip_code": "6402"
    },
    {
        "id": "1069",
        "province_id": "53",
        "name": "Lope de Vega",
        "zip_code": "6403"
    },
    {
        "id": "1070",
        "province_id": "53",
        "name": "Lavezares",
        "zip_code": "6404"
    },
    {
        "id": "1071",
        "province_id": "53",
        "name": "Allen",
        "zip_code": "6405"
    },
    {
        "id": "1072",
        "province_id": "53",
        "name": "Victoria",
        "zip_code": "6406"
    },
    {
        "id": "1073",
        "province_id": "53",
        "name": "San Antonio",
        "zip_code": "6407"
    },
    {
        "id": "1074",
        "province_id": "53",
        "name": "Capul",
        "zip_code": "6408"
    },
    {
        "id": "1075",
        "province_id": "53",
        "name": "San Isidro",
        "zip_code": "6409"
    },
    {
        "id": "1076",
        "province_id": "53",
        "name": "Biri",
        "zip_code": "6410"
    },
    {
        "id": "1077",
        "province_id": "53",
        "name": "Laoang",
        "zip_code": "6411"
    },
    {
        "id": "1078",
        "province_id": "53",
        "name": "Maranas",
        "zip_code": "6412"
    },
    {
        "id": "1079",
        "province_id": "53",
        "name": "Pambujan",
        "zip_code": "6413"
    },
    {
        "id": "1080",
        "province_id": "53",
        "name": "Silvino Lubos",
        "zip_code": "6414"
    },
    {
        "id": "1081",
        "province_id": "53",
        "name": "San Roque",
        "zip_code": "6415"
    },
    {
        "id": "1082",
        "province_id": "53",
        "name": "Rosario",
        "zip_code": "6416"
    },
    {
        "id": "1083",
        "province_id": "53",
        "name": "Mondragon",
        "zip_code": "6417"
    },
    {
        "id": "1084",
        "province_id": "53",
        "name": "Catubig",
        "zip_code": "6418"
    },
    {
        "id": "1085",
        "province_id": "53",
        "name": "San Vicente",
        "zip_code": "6419"
    },
    {
        "id": "1086",
        "province_id": "53",
        "name": "La Navas",
        "zip_code": "6420"
    },
    {
        "id": "1087",
        "province_id": "53",
        "name": "Palapag",
        "zip_code": "6421"
    },
    {
        "id": "1088",
        "province_id": "53",
        "name": "Gamay",
        "zip_code": "6422"
    },
    {
        "id": "1089",
        "province_id": "53",
        "name": "Lapineg",
        "zip_code": "6423"
    },
    {
        "id": "1090",
        "province_id": "54",
        "name": "Cabanatuan City",
        "zip_code": "3100"
    },
    {
        "id": "1091",
        "province_id": "54",
        "name": "Santa Rosa",
        "zip_code": "3101"
    },
    {
        "id": "1092",
        "province_id": "54",
        "name": "San Leonardo",
        "zip_code": "3102"
    },
    {
        "id": "1093",
        "province_id": "54",
        "name": "Penaranda",
        "zip_code": "3103"
    },
    {
        "id": "1094",
        "province_id": "54",
        "name": "Gen. Tinio",
        "zip_code": "3104"
    },
    {
        "id": "1095",
        "province_id": "54",
        "name": "Gapan",
        "zip_code": "3105"
    },
    {
        "id": "1096",
        "province_id": "54",
        "name": "San Isidro",
        "zip_code": "3106"
    },
    {
        "id": "1097",
        "province_id": "54",
        "name": "Cabiao",
        "zip_code": "3107"
    },
    {
        "id": "1098",
        "province_id": "54",
        "name": "San Antonio",
        "zip_code": "3108"
    },
    {
        "id": "1099",
        "province_id": "54",
        "name": "Jaen",
        "zip_code": "3109"
    },
    {
        "id": "1100",
        "province_id": "54",
        "name": "Zaragosa",
        "zip_code": "3110"
    },
    {
        "id": "1101",
        "province_id": "54",
        "name": "Aliaga",
        "zip_code": "3111"
    },
    {
        "id": "1102",
        "province_id": "54",
        "name": "Licab",
        "zip_code": "3112"
    },
    {
        "id": "1103",
        "province_id": "54",
        "name": "Quezon",
        "zip_code": "3113"
    },
    {
        "id": "1104",
        "province_id": "54",
        "name": "Talavera",
        "zip_code": "3114"
    },
    {
        "id": "1105",
        "province_id": "54",
        "name": "Guimba",
        "zip_code": "3115"
    },
    {
        "id": "1106",
        "province_id": "54",
        "name": "Nampicuan",
        "zip_code": "3116"
    },
    {
        "id": "1107",
        "province_id": "54",
        "name": "Cuyapo",
        "zip_code": "3117"
    },
    {
        "id": "1108",
        "province_id": "54",
        "name": "Talugtog",
        "zip_code": "3118"
    },
    {
        "id": "1109",
        "province_id": "54",
        "name": "Munoz",
        "zip_code": "3119"
    },
    {
        "id": "1110",
        "province_id": "54",
        "name": "Central Luzon State University (CLSU)",
        "zip_code": "3120"
    },
    {
        "id": "1111",
        "province_id": "54",
        "name": "San Jose City",
        "zip_code": "3121"
    },
    {
        "id": "1112",
        "province_id": "54",
        "name": "Lupao",
        "zip_code": "3122"
    },
    {
        "id": "1113",
        "province_id": "54",
        "name": "Carrangalan",
        "zip_code": "3123"
    },
    {
        "id": "1114",
        "province_id": "54",
        "name": "Pantabangan",
        "zip_code": "3124"
    },
    {
        "id": "1115",
        "province_id": "54",
        "name": "Gen. M. Natividad",
        "zip_code": "3125"
    },
    {
        "id": "1116",
        "province_id": "54",
        "name": "Llanera",
        "zip_code": "3126"
    },
    {
        "id": "1117",
        "province_id": "54",
        "name": "Rizal",
        "zip_code": "3127"
    },
    {
        "id": "1118",
        "province_id": "54",
        "name": "Bongabon",
        "zip_code": "3128"
    },
    {
        "id": "1119",
        "province_id": "54",
        "name": "Laur",
        "zip_code": "3129"
    },
    {
        "id": "1120",
        "province_id": "54",
        "name": "Fort Magsaysay",
        "zip_code": "3130"
    },
    {
        "id": "1121",
        "province_id": "54",
        "name": "Gabaldon",
        "zip_code": "3131"
    },
    {
        "id": "1122",
        "province_id": "54",
        "name": "Palayan City",
        "zip_code": "3132"
    },
    {
        "id": "1123",
        "province_id": "54",
        "name": "Santo Domingo",
        "zip_code": "3133"
    },
    {
        "id": "1124",
        "province_id": "55",
        "name": "Alfonso Casta√±eda",
        "zip_code": "3714"
    },
    {
        "id": "1125",
        "province_id": "55",
        "name": "Ambaguio",
        "zip_code": "3701"
    },
    {
        "id": "1126",
        "province_id": "55",
        "name": "Aritao",
        "zip_code": "3704"
    },
    {
        "id": "1127",
        "province_id": "55",
        "name": "Bagabag",
        "zip_code": "3711"
    },
    {
        "id": "1128",
        "province_id": "55",
        "name": "Bambang",
        "zip_code": "3702"
    },
    {
        "id": "1129",
        "province_id": "55",
        "name": "Bayombong",
        "zip_code": "3700"
    },
    {
        "id": "1130",
        "province_id": "55",
        "name": "Diadi",
        "zip_code": "3712"
    },
    {
        "id": "1131",
        "province_id": "55",
        "name": "Dupax del Norte",
        "zip_code": "3706"
    },
    {
        "id": "1132",
        "province_id": "55",
        "name": "Dupax del Sur",
        "zip_code": "3707"
    },
    {
        "id": "1133",
        "province_id": "55",
        "name": "Kasibu",
        "zip_code": "3703"
    },
    {
        "id": "1134",
        "province_id": "55",
        "name": "Kayapa",
        "zip_code": "3708"
    },
    {
        "id": "1135",
        "province_id": "55",
        "name": "Quezon",
        "zip_code": "3713"
    },
    {
        "id": "1136",
        "province_id": "55",
        "name": "Solano",
        "zip_code": "3709"
    },
    {
        "id": "1137",
        "province_id": "55",
        "name": "Sta. Fe (Imugan)",
        "zip_code": "3705"
    },
    {
        "id": "1138",
        "province_id": "55",
        "name": "Villa Verde (Ibung)",
        "zip_code": "3710"
    },
    {
        "id": "1139",
        "province_id": "56",
        "name": "Abra de Ilog",
        "zip_code": "5108"
    },
    {
        "id": "1140",
        "province_id": "56",
        "name": "Calintaan",
        "zip_code": "5102"
    },
    {
        "id": "1141",
        "province_id": "56",
        "name": "Looc",
        "zip_code": "5111"
    },
    {
        "id": "1142",
        "province_id": "56",
        "name": "Lubang",
        "zip_code": "5109"
    },
    {
        "id": "1143",
        "province_id": "56",
        "name": "Magsaysay",
        "zip_code": "5101"
    },
    {
        "id": "1144",
        "province_id": "56",
        "name": "Mamburao",
        "zip_code": "5106"
    },
    {
        "id": "1145",
        "province_id": "56",
        "name": "Paluan",
        "zip_code": "5107"
    },
    {
        "id": "1146",
        "province_id": "56",
        "name": "San Jose",
        "zip_code": "5100"
    },
    {
        "id": "1147",
        "province_id": "56",
        "name": "Magsaysay",
        "zip_code": "5101"
    },
    {
        "id": "1148",
        "province_id": "56",
        "name": "Rizal",
        "zip_code": "5103"
    },
    {
        "id": "1149",
        "province_id": "56",
        "name": "Sablayan",
        "zip_code": "5104"
    },
    {
        "id": "1150",
        "province_id": "56",
        "name": "Santa Cruz",
        "zip_code": "5105"
    },
    {
        "id": "1151",
        "province_id": "56",
        "name": "Mamburao",
        "zip_code": "5106"
    },
    {
        "id": "1152",
        "province_id": "56",
        "name": "Tilik",
        "zip_code": "5110"
    },
    {
        "id": "1153",
        "province_id": "57",
        "name": "Calapan",
        "zip_code": "5200"
    },
    {
        "id": "1154",
        "province_id": "57",
        "name": "Baco",
        "zip_code": "5201"
    },
    {
        "id": "1155",
        "province_id": "57",
        "name": "San Teodoro",
        "zip_code": "5202"
    },
    {
        "id": "1156",
        "province_id": "57",
        "name": "Puerto Galera",
        "zip_code": "5203"
    },
    {
        "id": "1157",
        "province_id": "57",
        "name": "Naujan",
        "zip_code": "5204"
    },
    {
        "id": "1158",
        "province_id": "57",
        "name": "Victoria",
        "zip_code": "5205"
    },
    {
        "id": "1159",
        "province_id": "57",
        "name": "Pola",
        "zip_code": "5206"
    },
    {
        "id": "1160",
        "province_id": "57",
        "name": "Socorro",
        "zip_code": "5207"
    },
    {
        "id": "1161",
        "province_id": "57",
        "name": "Pinamalayan",
        "zip_code": "5208"
    },
    {
        "id": "1162",
        "province_id": "57",
        "name": "Gloria",
        "zip_code": "5209"
    },
    {
        "id": "1163",
        "province_id": "57",
        "name": "Bansud",
        "zip_code": "5210"
    },
    {
        "id": "1164",
        "province_id": "57",
        "name": "Bongabon",
        "zip_code": "5211"
    },
    {
        "id": "1165",
        "province_id": "57",
        "name": "Roxas",
        "zip_code": "5212"
    },
    {
        "id": "1166",
        "province_id": "57",
        "name": "Mansalay",
        "zip_code": "5213"
    },
    {
        "id": "1167",
        "province_id": "57",
        "name": "Bulalacao",
        "zip_code": "5214"
    },
    {
        "id": "1168",
        "province_id": "58",
        "name": "Puerto Princesa City",
        "zip_code": "5300"
    },
    {
        "id": "1169",
        "province_id": "58",
        "name": "Iwahig Penal Colony",
        "zip_code": "5301"
    },
    {
        "id": "1170",
        "province_id": "58",
        "name": "Aborlan",
        "zip_code": "5302"
    },
    {
        "id": "1171",
        "province_id": "58",
        "name": "Narra (Panacan)",
        "zip_code": "5303"
    },
    {
        "id": "1172",
        "province_id": "58",
        "name": "Quezon",
        "zip_code": "5304"
    },
    {
        "id": "1173",
        "province_id": "58",
        "name": "Brooke‚Äôs Point",
        "zip_code": "5305"
    },
    {
        "id": "1174",
        "province_id": "58",
        "name": "Bataraza",
        "zip_code": "5306"
    },
    {
        "id": "1175",
        "province_id": "58",
        "name": "Balabac",
        "zip_code": "5307"
    },
    {
        "id": "1176",
        "province_id": "58",
        "name": "Roxas",
        "zip_code": "5308"
    },
    {
        "id": "1177",
        "province_id": "58",
        "name": "San Vicente",
        "zip_code": "5309"
    },
    {
        "id": "1178",
        "province_id": "58",
        "name": "Dumaran",
        "zip_code": "5310"
    },
    {
        "id": "1179",
        "province_id": "58",
        "name": "Araceli",
        "zip_code": "5311"
    },
    {
        "id": "1180",
        "province_id": "58",
        "name": "Taytay",
        "zip_code": "5312"
    },
    {
        "id": "1181",
        "province_id": "58",
        "name": "El Nido (Baquit)",
        "zip_code": "5313"
    },
    {
        "id": "1182",
        "province_id": "58",
        "name": "Linapacan",
        "zip_code": "5314"
    },
    {
        "id": "1183",
        "province_id": "58",
        "name": "Culion",
        "zip_code": "5315"
    },
    {
        "id": "1184",
        "province_id": "58",
        "name": "Coron",
        "zip_code": "5316"
    },
    {
        "id": "1185",
        "province_id": "58",
        "name": "Busuanga",
        "zip_code": "5317"
    },
    {
        "id": "1186",
        "province_id": "58",
        "name": "Cuyo",
        "zip_code": "5318"
    },
    {
        "id": "1187",
        "province_id": "58",
        "name": "Magsaysay",
        "zip_code": "5319"
    },
    {
        "id": "1188",
        "province_id": "58",
        "name": "Agutaya",
        "zip_code": "5320"
    },
    {
        "id": "1189",
        "province_id": "58",
        "name": "Cagayancillo",
        "zip_code": "5321"
    },
    {
        "id": "1190",
        "province_id": "58",
        "name": "Kalayaan",
        "zip_code": "5322"
    },
    {
        "id": "1191",
        "province_id": "59",
        "name": "San Fernando",
        "zip_code": "2000"
    },
    {
        "id": "1192",
        "province_id": "59",
        "name": "Bacolor",
        "zip_code": "2001"
    },
    {
        "id": "1193",
        "province_id": "59",
        "name": "Santa Rita",
        "zip_code": "2002"
    },
    {
        "id": "1194",
        "province_id": "59",
        "name": "Guagua",
        "zip_code": "2003"
    },
    {
        "id": "1195",
        "province_id": "59",
        "name": "Sexmoan",
        "zip_code": "2004"
    },
    {
        "id": "1196",
        "province_id": "59",
        "name": "Lubao",
        "zip_code": "2005"
    },
    {
        "id": "1197",
        "province_id": "59",
        "name": "Floridablanca",
        "zip_code": "2006"
    },
    {
        "id": "1198",
        "province_id": "59",
        "name": "Basa Airbase",
        "zip_code": "2007"
    },
    {
        "id": "1199",
        "province_id": "59",
        "name": "Porac",
        "zip_code": "2008"
    },
    {
        "id": "1200",
        "province_id": "59",
        "name": "Angeles City",
        "zip_code": "2009"
    },
    {
        "id": "1201",
        "province_id": "59",
        "name": "Mabalacat",
        "zip_code": "2010"
    },
    {
        "id": "1202",
        "province_id": "59",
        "name": "Magalang",
        "zip_code": "2011"
    },
    {
        "id": "1203",
        "province_id": "59",
        "name": "Arayat",
        "zip_code": "2012"
    },
    {
        "id": "1204",
        "province_id": "59",
        "name": "Candaba",
        "zip_code": "2013"
    },
    {
        "id": "1205",
        "province_id": "59",
        "name": "San Luis",
        "zip_code": "2014"
    },
    {
        "id": "1206",
        "province_id": "59",
        "name": "San Simon",
        "zip_code": "2015"
    },
    {
        "id": "1207",
        "province_id": "59",
        "name": "Apalit",
        "zip_code": "2016"
    },
    {
        "id": "1208",
        "province_id": "59",
        "name": "Masantol",
        "zip_code": "2017"
    },
    {
        "id": "1209",
        "province_id": "59",
        "name": "Macabebe",
        "zip_code": "2018"
    },
    {
        "id": "1210",
        "province_id": "59",
        "name": "Minalin",
        "zip_code": "2019"
    },
    {
        "id": "1211",
        "province_id": "59",
        "name": "Santo Tomas",
        "zip_code": "2020"
    },
    {
        "id": "1212",
        "province_id": "59",
        "name": "Mexico",
        "zip_code": "2021"
    },
    {
        "id": "1213",
        "province_id": "59",
        "name": "Santa Ana",
        "zip_code": "2022"
    },
    {
        "id": "1214",
        "province_id": "60",
        "name": "Dagupan City",
        "zip_code": "2400"
    },
    {
        "id": "1215",
        "province_id": "60",
        "name": "Lingayen",
        "zip_code": "2401"
    },
    {
        "id": "1216",
        "province_id": "60",
        "name": "Labrador",
        "zip_code": "2402"
    },
    {
        "id": "1217",
        "province_id": "60",
        "name": "Sual",
        "zip_code": "2403"
    },
    {
        "id": "1218",
        "province_id": "60",
        "name": "Alaminos",
        "zip_code": "2404"
    },
    {
        "id": "1219",
        "province_id": "60",
        "name": "Anda",
        "zip_code": "2405"
    },
    {
        "id": "1220",
        "province_id": "60",
        "name": "Bolinao",
        "zip_code": "2406"
    },
    {
        "id": "1221",
        "province_id": "60",
        "name": "Bani",
        "zip_code": "2407"
    },
    {
        "id": "1222",
        "province_id": "60",
        "name": "Agno",
        "zip_code": "2408"
    },
    {
        "id": "1223",
        "province_id": "60",
        "name": "Mabini",
        "zip_code": "2409"
    },
    {
        "id": "1224",
        "province_id": "60",
        "name": "Burgos",
        "zip_code": "2410"
    },
    {
        "id": "1225",
        "province_id": "60",
        "name": "Dasol",
        "zip_code": "2411"
    },
    {
        "id": "1226",
        "province_id": "60",
        "name": "Infanta",
        "zip_code": "2412"
    },
    {
        "id": "1227",
        "province_id": "60",
        "name": "Mangatarem",
        "zip_code": "2413"
    },
    {
        "id": "1228",
        "province_id": "60",
        "name": "Urbiztondo",
        "zip_code": "2414"
    },
    {
        "id": "1229",
        "province_id": "60",
        "name": "Aguilar",
        "zip_code": "2415"
    },
    {
        "id": "1230",
        "province_id": "60",
        "name": "Bugallon",
        "zip_code": "2416"
    },
    {
        "id": "1231",
        "province_id": "60",
        "name": "Binmaley",
        "zip_code": "2417"
    },
    {
        "id": "1232",
        "province_id": "60",
        "name": "Calasiao",
        "zip_code": "2418"
    },
    {
        "id": "1233",
        "province_id": "60",
        "name": "Santa Barbara",
        "zip_code": "2419"
    },
    {
        "id": "1234",
        "province_id": "60",
        "name": "San Carlos City",
        "zip_code": "2420"
    },
    {
        "id": "1235",
        "province_id": "60",
        "name": "Malasiqui",
        "zip_code": "2421"
    },
    {
        "id": "1236",
        "province_id": "60",
        "name": "Basista",
        "zip_code": "2422"
    },
    {
        "id": "1237",
        "province_id": "60",
        "name": "Bayambang",
        "zip_code": "2423"
    },
    {
        "id": "1238",
        "province_id": "60",
        "name": "Bautista",
        "zip_code": "2424"
    },
    {
        "id": "1239",
        "province_id": "60",
        "name": "Alcala",
        "zip_code": "2425"
    },
    {
        "id": "1240",
        "province_id": "60",
        "name": "Sto. Tomas",
        "zip_code": "2426"
    },
    {
        "id": "1241",
        "province_id": "60",
        "name": "Villasis",
        "zip_code": "2427"
    },
    {
        "id": "1242",
        "province_id": "60",
        "name": "Urdaneta",
        "zip_code": "2428"
    },
    {
        "id": "1243",
        "province_id": "60",
        "name": "Mapandan",
        "zip_code": "2429"
    },
    {
        "id": "1244",
        "province_id": "60",
        "name": "Manaoag",
        "zip_code": "2430"
    },
    {
        "id": "1245",
        "province_id": "60",
        "name": "San Jacinto",
        "zip_code": "2431"
    },
    {
        "id": "1246",
        "province_id": "60",
        "name": "Mangaldan",
        "zip_code": "2432"
    },
    {
        "id": "1247",
        "province_id": "60",
        "name": "San Fabian",
        "zip_code": "2433"
    },
    {
        "id": "1248",
        "province_id": "60",
        "name": "Sison",
        "zip_code": "2434"
    },
    {
        "id": "1249",
        "province_id": "60",
        "name": "Pozorrubio",
        "zip_code": "2435"
    },
    {
        "id": "1250",
        "province_id": "60",
        "name": "Binalonan",
        "zip_code": "2435"
    },
    {
        "id": "1251",
        "province_id": "60",
        "name": "Binalonan",
        "zip_code": "2436"
    },
    {
        "id": "1252",
        "province_id": "60",
        "name": "Laoac",
        "zip_code": "2437"
    },
    {
        "id": "1253",
        "province_id": "60",
        "name": "San Manuel",
        "zip_code": "2438"
    },
    {
        "id": "1254",
        "province_id": "60",
        "name": "Asingan",
        "zip_code": "2439"
    },
    {
        "id": "1255",
        "province_id": "60",
        "name": "Asingan",
        "zip_code": "2439"
    },
    {
        "id": "1256",
        "province_id": "60",
        "name": "Santa Maria",
        "zip_code": "2440"
    },
    {
        "id": "1257",
        "province_id": "60",
        "name": "Rosales",
        "zip_code": "2441"
    },
    {
        "id": "1258",
        "province_id": "60",
        "name": "Balungao",
        "zip_code": "2442"
    },
    {
        "id": "1259",
        "province_id": "60",
        "name": "Umingan",
        "zip_code": "2443"
    },
    {
        "id": "1260",
        "province_id": "60",
        "name": "San Quintin",
        "zip_code": "2444"
    },
    {
        "id": "1261",
        "province_id": "60",
        "name": "Tayug",
        "zip_code": "2445"
    },
    {
        "id": "1262",
        "province_id": "60",
        "name": "Natividad",
        "zip_code": "2446"
    },
    {
        "id": "1263",
        "province_id": "60",
        "name": "San Nicolas",
        "zip_code": "2447"
    },
    {
        "id": "1264",
        "province_id": "61",
        "name": "Quezon Capitol",
        "zip_code": "4300"
    },
    {
        "id": "1265",
        "province_id": "61",
        "name": "Lucena City",
        "zip_code": "4301"
    },
    {
        "id": "1266",
        "province_id": "61",
        "name": "Pagbilao",
        "zip_code": "4302"
    },
    {
        "id": "1267",
        "province_id": "61",
        "name": "Padre Burgos",
        "zip_code": "4303"
    },
    {
        "id": "1268",
        "province_id": "61",
        "name": "Agbangan",
        "zip_code": "4304"
    },
    {
        "id": "1269",
        "province_id": "61",
        "name": "Unisan",
        "zip_code": "4305"
    },
    {
        "id": "1270",
        "province_id": "61",
        "name": "Plaridel",
        "zip_code": "4306"
    },
    {
        "id": "1271",
        "province_id": "61",
        "name": "Gumaca",
        "zip_code": "4307"
    },
    {
        "id": "1272",
        "province_id": "61",
        "name": "Pitogo",
        "zip_code": "4308"
    },
    {
        "id": "1273",
        "province_id": "61",
        "name": "Macalelon",
        "zip_code": "4309"
    },
    {
        "id": "1274",
        "province_id": "61",
        "name": "General Luna",
        "zip_code": "4310"
    },
    {
        "id": "1275",
        "province_id": "61",
        "name": "Catanauan",
        "zip_code": "4311"
    },
    {
        "id": "1276",
        "province_id": "61",
        "name": "Mulanay",
        "zip_code": "4312"
    },
    {
        "id": "1277",
        "province_id": "61",
        "name": "San Narciso",
        "zip_code": "4313"
    },
    {
        "id": "1278",
        "province_id": "61",
        "name": "San Andres",
        "zip_code": "4314"
    },
    {
        "id": "1279",
        "province_id": "61",
        "name": "San Francisco",
        "zip_code": "4315"
    },
    {
        "id": "1280",
        "province_id": "61",
        "name": "Lopez",
        "zip_code": "4316"
    },
    {
        "id": "1281",
        "province_id": "61",
        "name": "Hondagua",
        "zip_code": "4317"
    },
    {
        "id": "1282",
        "province_id": "61",
        "name": "Calauag",
        "zip_code": "4318"
    },
    {
        "id": "1283",
        "province_id": "61",
        "name": "Guinayangan",
        "zip_code": "4319"
    },
    {
        "id": "1284",
        "province_id": "61",
        "name": "Buenavista",
        "zip_code": "4320"
    },
    {
        "id": "1285",
        "province_id": "61",
        "name": "Tagkawayan",
        "zip_code": "4321"
    },
    {
        "id": "1286",
        "province_id": "61",
        "name": "Sariaya",
        "zip_code": "4322"
    },
    {
        "id": "1287",
        "province_id": "61",
        "name": "Candelaria",
        "zip_code": "4323"
    },
    {
        "id": "1288",
        "province_id": "61",
        "name": "San Antonio",
        "zip_code": "4324"
    },
    {
        "id": "1289",
        "province_id": "61",
        "name": "Tiaong",
        "zip_code": "4325"
    },
    {
        "id": "1290",
        "province_id": "61",
        "name": "Dolores",
        "zip_code": "4326"
    },
    {
        "id": "1291",
        "province_id": "61",
        "name": "Tayabas",
        "zip_code": "4327"
    },
    {
        "id": "1292",
        "province_id": "61",
        "name": "Lucban",
        "zip_code": "4328"
    },
    {
        "id": "1293",
        "province_id": "61",
        "name": "Sampaloc",
        "zip_code": "4329"
    },
    {
        "id": "1294",
        "province_id": "61",
        "name": "Mauban",
        "zip_code": "4330"
    },
    {
        "id": "1295",
        "province_id": "61",
        "name": "Atimonan",
        "zip_code": "4331"
    },
    {
        "id": "1296",
        "province_id": "61",
        "name": "Quezon",
        "zip_code": "4332"
    },
    {
        "id": "1297",
        "province_id": "61",
        "name": "Alabat",
        "zip_code": "4333"
    },
    {
        "id": "1298",
        "province_id": "61",
        "name": "Perez",
        "zip_code": "4334"
    },
    {
        "id": "1299",
        "province_id": "61",
        "name": "Real",
        "zip_code": "4336"
    },
    {
        "id": "1300",
        "province_id": "61",
        "name": "Panukulan",
        "zip_code": "4337"
    },
    {
        "id": "1301",
        "province_id": "61",
        "name": "General Nakar",
        "zip_code": "4338"
    },
    {
        "id": "1302",
        "province_id": "61",
        "name": "Polilio",
        "zip_code": "4339"
    },
    {
        "id": "1303",
        "province_id": "61",
        "name": "Burdeos",
        "zip_code": "4340"
    },
    {
        "id": "1304",
        "province_id": "61",
        "name": "Patnanongan",
        "zip_code": "4341"
    },
    {
        "id": "1305",
        "province_id": "61",
        "name": "Jomalig",
        "zip_code": "4342"
    },
    {
        "id": "1306",
        "province_id": "62",
        "name": "Cabarruguis",
        "zip_code": "3400"
    },
    {
        "id": "1307",
        "province_id": "62",
        "name": "Diffun",
        "zip_code": "3401"
    },
    {
        "id": "1308",
        "province_id": "62",
        "name": "Saguday",
        "zip_code": "3402"
    },
    {
        "id": "1309",
        "province_id": "62",
        "name": "Aglipay",
        "zip_code": "3403"
    },
    {
        "id": "1310",
        "province_id": "62",
        "name": "Maddela",
        "zip_code": "3404"
    },
    {
        "id": "1311",
        "province_id": "62",
        "name": "Nagtipunan (Abbag)",
        "zip_code": "3405"
    },
    {
        "id": "1312",
        "province_id": "63",
        "name": "San Mateo",
        "zip_code": "1850"
    },
    {
        "id": "1313",
        "province_id": "63",
        "name": "Montalban (Rodriguez)",
        "zip_code": "1860"
    },
    {
        "id": "1314",
        "province_id": "63",
        "name": "Antipolo",
        "zip_code": "1870"
    },
    {
        "id": "1315",
        "province_id": "63",
        "name": "Teresa",
        "zip_code": "1880"
    },
    {
        "id": "1316",
        "province_id": "63",
        "name": "Cainta",
        "zip_code": "1900"
    },
    {
        "id": "1317",
        "province_id": "63",
        "name": "Pililia",
        "zip_code": "1910"
    },
    {
        "id": "1318",
        "province_id": "63",
        "name": "Taytay",
        "zip_code": "1920"
    },
    {
        "id": "1319",
        "province_id": "63",
        "name": "Angono",
        "zip_code": "1930"
    },
    {
        "id": "1320",
        "province_id": "63",
        "name": "Binangonan",
        "zip_code": "1940"
    },
    {
        "id": "1321",
        "province_id": "63",
        "name": "Cardona",
        "zip_code": "1950"
    },
    {
        "id": "1322",
        "province_id": "63",
        "name": "Morong",
        "zip_code": "1960"
    },
    {
        "id": "1323",
        "province_id": "63",
        "name": "Baras",
        "zip_code": "1970"
    },
    {
        "id": "1324",
        "province_id": "63",
        "name": "Tanay",
        "zip_code": "1980"
    },
    {
        "id": "1325",
        "province_id": "63",
        "name": "Jala-jala",
        "zip_code": "1990"
    },
    {
        "id": "1326",
        "province_id": "64",
        "name": "Romblon",
        "zip_code": "5500"
    },
    {
        "id": "1327",
        "province_id": "64",
        "name": "San Agustin",
        "zip_code": "5501"
    },
    {
        "id": "1328",
        "province_id": "64",
        "name": "Imelda",
        "zip_code": "5502"
    },
    {
        "id": "1329",
        "province_id": "64",
        "name": "Calatrava",
        "zip_code": "5503"
    },
    {
        "id": "1330",
        "province_id": "64",
        "name": "San Andres",
        "zip_code": "5504"
    },
    {
        "id": "1331",
        "province_id": "64",
        "name": "Odiongan",
        "zip_code": "5505"
    },
    {
        "id": "1332",
        "province_id": "64",
        "name": "Ferrol",
        "zip_code": "5506"
    },
    {
        "id": "1333",
        "province_id": "64",
        "name": "Looc",
        "zip_code": "5507"
    },
    {
        "id": "1334",
        "province_id": "64",
        "name": "Sta. Fe",
        "zip_code": "5508"
    },
    {
        "id": "1335",
        "province_id": "64",
        "name": "Alcantara",
        "zip_code": "5509"
    },
    {
        "id": "1336",
        "province_id": "64",
        "name": "San Jose",
        "zip_code": "5510"
    },
    {
        "id": "1337",
        "province_id": "64",
        "name": "Magdiwang",
        "zip_code": "5511"
    },
    {
        "id": "1338",
        "province_id": "64",
        "name": "Cajidiocan",
        "zip_code": "5512"
    },
    {
        "id": "1339",
        "province_id": "64",
        "name": "San Fernando",
        "zip_code": "5513"
    },
    {
        "id": "1340",
        "province_id": "64",
        "name": "Corcuera",
        "zip_code": "5514"
    },
    {
        "id": "1341",
        "province_id": "64",
        "name": "Banton (Jones)",
        "zip_code": "5515"
    },
    {
        "id": "1342",
        "province_id": "64",
        "name": "Concepcion",
        "zip_code": "5516"
    },
    {
        "id": "1343",
        "province_id": "65",
        "name": "Catarman",
        "zip_code": "6400"
    },
    {
        "id": "1344",
        "province_id": "65",
        "name": "Bobon",
        "zip_code": "6401"
    },
    {
        "id": "1345",
        "province_id": "65",
        "name": "San Jose",
        "zip_code": "6402"
    },
    {
        "id": "1346",
        "province_id": "65",
        "name": "Lope de Vega",
        "zip_code": "6403"
    },
    {
        "id": "1347",
        "province_id": "65",
        "name": "Lavezares",
        "zip_code": "6404"
    },
    {
        "id": "1348",
        "province_id": "65",
        "name": "Allen",
        "zip_code": "6405"
    },
    {
        "id": "1349",
        "province_id": "65",
        "name": "Victoria",
        "zip_code": "6406"
    },
    {
        "id": "1350",
        "province_id": "65",
        "name": "San Antonio",
        "zip_code": "6407"
    },
    {
        "id": "1351",
        "province_id": "65",
        "name": "Capul",
        "zip_code": "6408"
    },
    {
        "id": "1352",
        "province_id": "65",
        "name": "San Isidro",
        "zip_code": "6409"
    },
    {
        "id": "1353",
        "province_id": "65",
        "name": "Biri",
        "zip_code": "6410"
    },
    {
        "id": "1354",
        "province_id": "65",
        "name": "Laoang",
        "zip_code": "6411"
    },
    {
        "id": "1355",
        "province_id": "65",
        "name": "Maranas",
        "zip_code": "6412"
    },
    {
        "id": "1356",
        "province_id": "65",
        "name": "Pambujan",
        "zip_code": "6413"
    },
    {
        "id": "1357",
        "province_id": "65",
        "name": "Silvino Lubos",
        "zip_code": "6414"
    },
    {
        "id": "1358",
        "province_id": "65",
        "name": "San Roque",
        "zip_code": "6415"
    },
    {
        "id": "1359",
        "province_id": "65",
        "name": "Rosario",
        "zip_code": "6416"
    },
    {
        "id": "1360",
        "province_id": "65",
        "name": "Mondragon",
        "zip_code": "6417"
    },
    {
        "id": "1361",
        "province_id": "65",
        "name": "Catubig",
        "zip_code": "6418"
    },
    {
        "id": "1362",
        "province_id": "65",
        "name": "San Vicente",
        "zip_code": "6419"
    },
    {
        "id": "1363",
        "province_id": "65",
        "name": "La Navas",
        "zip_code": "6420"
    },
    {
        "id": "1364",
        "province_id": "65",
        "name": "Palapag",
        "zip_code": "6421"
    },
    {
        "id": "1365",
        "province_id": "65",
        "name": "Gamay",
        "zip_code": "6422"
    },
    {
        "id": "1366",
        "province_id": "65",
        "name": "Lapineg",
        "zip_code": "6423"
    },
    {
        "id": "1367",
        "province_id": "66",
        "name": "Alabel",
        "zip_code": "9501"
    },
    {
        "id": "1368",
        "province_id": "66",
        "name": "Maasim",
        "zip_code": "9502"
    },
    {
        "id": "1369",
        "province_id": "66",
        "name": "Malungon",
        "zip_code": "9503"
    },
    {
        "id": "1370",
        "province_id": "66",
        "name": "Kiamba",
        "zip_code": "9514"
    },
    {
        "id": "1371",
        "province_id": "66",
        "name": "Maitum",
        "zip_code": "9515"
    },
    {
        "id": "1372",
        "province_id": "66",
        "name": "Malapatan",
        "zip_code": "9516"
    },
    {
        "id": "1373",
        "province_id": "66",
        "name": "Glan",
        "zip_code": "9517"
    },
    {
        "id": "1374",
        "province_id": "67",
        "name": "Siquijor",
        "zip_code": "6225"
    },
    {
        "id": "1375",
        "province_id": "67",
        "name": "Larena",
        "zip_code": "6226"
    },
    {
        "id": "1376",
        "province_id": "67",
        "name": "San Juan",
        "zip_code": "6227"
    },
    {
        "id": "1377",
        "province_id": "67",
        "name": "Lazi",
        "zip_code": "6228"
    },
    {
        "id": "1378",
        "province_id": "67",
        "name": "Maria",
        "zip_code": "6229"
    },
    {
        "id": "1379",
        "province_id": "67",
        "name": "Enrique Villanueva",
        "zip_code": "6230"
    },
    {
        "id": "1380",
        "province_id": "68",
        "name": "Sorsogon",
        "zip_code": "4700"
    },
    {
        "id": "1381",
        "province_id": "68",
        "name": "Bacon",
        "zip_code": "4701"
    },
    {
        "id": "1382",
        "province_id": "68",
        "name": "Casiguran",
        "zip_code": "4702"
    },
    {
        "id": "1383",
        "province_id": "68",
        "name": "Juban",
        "zip_code": "4703"
    },
    {
        "id": "1384",
        "province_id": "68",
        "name": "Bulusan",
        "zip_code": "4704"
    },
    {
        "id": "1385",
        "province_id": "68",
        "name": "Magallanes",
        "zip_code": "4705"
    },
    {
        "id": "1386",
        "province_id": "68",
        "name": "Bulan",
        "zip_code": "4706"
    },
    {
        "id": "1387",
        "province_id": "68",
        "name": "Irosin",
        "zip_code": "4707"
    },
    {
        "id": "1388",
        "province_id": "68",
        "name": "Matnog",
        "zip_code": "4708"
    },
    {
        "id": "1389",
        "province_id": "68",
        "name": "Sta. Magdalena",
        "zip_code": "4709"
    },
    {
        "id": "1390",
        "province_id": "68",
        "name": "Gubat",
        "zip_code": "4710"
    },
    {
        "id": "1391",
        "province_id": "68",
        "name": "Prieto Diaz",
        "zip_code": "4711"
    },
    {
        "id": "1392",
        "province_id": "68",
        "name": "Barcelona",
        "zip_code": "4712"
    },
    {
        "id": "1393",
        "province_id": "68",
        "name": "Castilla",
        "zip_code": "4713"
    },
    {
        "id": "1394",
        "province_id": "68",
        "name": "Pilar",
        "zip_code": "4714"
    },
    {
        "id": "1395",
        "province_id": "68",
        "name": "Donsol",
        "zip_code": "4715"
    },
    {
        "id": "1396",
        "province_id": "69",
        "name": "Gen. Santos City",
        "zip_code": "9500"
    },
    {
        "id": "1397",
        "province_id": "69",
        "name": "Polomolok",
        "zip_code": "9504"
    },
    {
        "id": "1398",
        "province_id": "69",
        "name": "Tupi",
        "zip_code": "9505"
    },
    {
        "id": "1399",
        "province_id": "69",
        "name": "Koronadal",
        "zip_code": "9506"
    },
    {
        "id": "1400",
        "province_id": "69",
        "name": "Tampacan",
        "zip_code": "9507"
    },
    {
        "id": "1401",
        "province_id": "69",
        "name": "Nurallah",
        "zip_code": "9508"
    },
    {
        "id": "1402",
        "province_id": "69",
        "name": "Sto. Nino",
        "zip_code": "9509"
    },
    {
        "id": "1403",
        "province_id": "69",
        "name": "Tantangan",
        "zip_code": "9510"
    },
    {
        "id": "1404",
        "province_id": "69",
        "name": "Banga",
        "zip_code": "9511"
    },
    {
        "id": "1405",
        "province_id": "69",
        "name": "Surallah",
        "zip_code": "9512"
    },
    {
        "id": "1406",
        "province_id": "69",
        "name": "T‚Äôboli",
        "zip_code": "9513"
    },
    {
        "id": "1407",
        "province_id": "71",
        "name": "Takurong",
        "zip_code": "9800"
    },
    {
        "id": "1408",
        "province_id": "71",
        "name": "Columbio",
        "zip_code": "9801"
    },
    {
        "id": "1409",
        "province_id": "71",
        "name": "Mariano Marcos",
        "zip_code": "9802"
    },
    {
        "id": "1410",
        "province_id": "71",
        "name": "Lutayan",
        "zip_code": "9803"
    },
    {
        "id": "1411",
        "province_id": "71",
        "name": "Pres. Quirino",
        "zip_code": "9804"
    },
    {
        "id": "1412",
        "province_id": "71",
        "name": "Isulan",
        "zip_code": "9805"
    },
    {
        "id": "1413",
        "province_id": "71",
        "name": "Esperanza (Ampatuan)",
        "zip_code": "9806"
    },
    {
        "id": "1414",
        "province_id": "71",
        "name": "Lebak (Salaman)",
        "zip_code": "9807"
    },
    {
        "id": "1415",
        "province_id": "71",
        "name": "Kalamansig",
        "zip_code": "9808"
    },
    {
        "id": "1416",
        "province_id": "71",
        "name": "Palimbang",
        "zip_code": "9809"
    },
    {
        "id": "1417",
        "province_id": "71",
        "name": "Bagumbayan",
        "zip_code": "9810"
    },
    {
        "id": "1418",
        "province_id": "71",
        "name": "Sen. Ninoy Aquino",
        "zip_code": "9811"
    },
    {
        "id": "1419",
        "province_id": "72",
        "name": "Jolo",
        "zip_code": "7400"
    },
    {
        "id": "1420",
        "province_id": "72",
        "name": "Patikul",
        "zip_code": "7401"
    },
    {
        "id": "1421",
        "province_id": "72",
        "name": "Patikul",
        "zip_code": "7401"
    },
    {
        "id": "1422",
        "province_id": "72",
        "name": "Panamao",
        "zip_code": "7402"
    },
    {
        "id": "1423",
        "province_id": "72",
        "name": "Talipao",
        "zip_code": "7403"
    },
    {
        "id": "1424",
        "province_id": "72",
        "name": "Luuk",
        "zip_code": "7404"
    },
    {
        "id": "1425",
        "province_id": "72",
        "name": "Pata",
        "zip_code": "7405"
    },
    {
        "id": "1426",
        "province_id": "72",
        "name": "Tongkil",
        "zip_code": "7406"
    },
    {
        "id": "1427",
        "province_id": "72",
        "name": "Indanan",
        "zip_code": "7407"
    },
    {
        "id": "1428",
        "province_id": "72",
        "name": "Parang",
        "zip_code": "7408"
    },
    {
        "id": "1429",
        "province_id": "72",
        "name": "Maimbung",
        "zip_code": "7409"
    },
    {
        "id": "1430",
        "province_id": "72",
        "name": "Tapul",
        "zip_code": "7410"
    },
    {
        "id": "1431",
        "province_id": "72",
        "name": "Lugus",
        "zip_code": "7411"
    },
    {
        "id": "1432",
        "province_id": "72",
        "name": "Siasi",
        "zip_code": "7412"
    },
    {
        "id": "1433",
        "province_id": "72",
        "name": "Marungas",
        "zip_code": "7413"
    },
    {
        "id": "1434",
        "province_id": "72",
        "name": "Panguntaran",
        "zip_code": "7414"
    },
    {
        "id": "1435",
        "province_id": "72",
        "name": "Panglima Estino",
        "zip_code": "7415"
    },
    {
        "id": "1436",
        "province_id": "72",
        "name": "Kalingalan Kalauang",
        "zip_code": "7416"
    },
    {
        "id": "1437",
        "province_id": "73",
        "name": "Surigao City",
        "zip_code": "8400"
    },
    {
        "id": "1438",
        "province_id": "73",
        "name": "San Francisco",
        "zip_code": "8401"
    },
    {
        "id": "1439",
        "province_id": "73",
        "name": "Malimano",
        "zip_code": "8402"
    },
    {
        "id": "1440",
        "province_id": "73",
        "name": "Tagana-an",
        "zip_code": "8403"
    },
    {
        "id": "1441",
        "province_id": "73",
        "name": "Sison",
        "zip_code": "8404"
    },
    {
        "id": "1442",
        "province_id": "73",
        "name": "Placer",
        "zip_code": "8405"
    },
    {
        "id": "1443",
        "province_id": "73",
        "name": "Tubod",
        "zip_code": "8406"
    },
    {
        "id": "1444",
        "province_id": "73",
        "name": "Mainit",
        "zip_code": "8407"
    },
    {
        "id": "1445",
        "province_id": "73",
        "name": "Bacuag",
        "zip_code": "8408"
    },
    {
        "id": "1446",
        "province_id": "73",
        "name": "Gigaquit",
        "zip_code": "8409"
    },
    {
        "id": "1447",
        "province_id": "73",
        "name": "Claver",
        "zip_code": "8410"
    },
    {
        "id": "1448",
        "province_id": "73",
        "name": "Cagdianao",
        "zip_code": "8411"
    },
    {
        "id": "1449",
        "province_id": "73",
        "name": "Dinagat",
        "zip_code": "8412"
    },
    {
        "id": "1450",
        "province_id": "73",
        "name": "Basilisa (Rizal)",
        "zip_code": "8413"
    },
    {
        "id": "1451",
        "province_id": "73",
        "name": "Libjo (Albor)",
        "zip_code": "8414"
    },
    {
        "id": "1452",
        "province_id": "73",
        "name": "Loreto",
        "zip_code": "8415"
    },
    {
        "id": "1453",
        "province_id": "73",
        "name": "Socorro",
        "zip_code": "8416"
    },
    {
        "id": "1454",
        "province_id": "73",
        "name": "Dapa",
        "zip_code": "8417"
    },
    {
        "id": "1455",
        "province_id": "73",
        "name": "Del Carmen",
        "zip_code": "8418"
    },
    {
        "id": "1456",
        "province_id": "73",
        "name": "Gen. Luna",
        "zip_code": "8419"
    },
    {
        "id": "1457",
        "province_id": "73",
        "name": "Pilar",
        "zip_code": "8420"
    },
    {
        "id": "1458",
        "province_id": "73",
        "name": "San Isidro",
        "zip_code": "8421"
    },
    {
        "id": "1459",
        "province_id": "73",
        "name": "Santa Monica",
        "zip_code": "8422"
    },
    {
        "id": "1460",
        "province_id": "73",
        "name": "San Benito",
        "zip_code": "8423"
    },
    {
        "id": "1461",
        "province_id": "73",
        "name": "Burgos",
        "zip_code": "8424"
    },
    {
        "id": "1462",
        "province_id": "73",
        "name": "Alegria",
        "zip_code": "8425"
    },
    {
        "id": "1463",
        "province_id": "73",
        "name": "Tubajon",
        "zip_code": "8426"
    },
    {
        "id": "1464",
        "province_id": "73",
        "name": "San Jose",
        "zip_code": "8427"
    },
    {
        "id": "1465",
        "province_id": "74",
        "name": "Tandag",
        "zip_code": "8300"
    },
    {
        "id": "1466",
        "province_id": "74",
        "name": "San Miguel",
        "zip_code": "8301"
    },
    {
        "id": "1467",
        "province_id": "74",
        "name": "Tago",
        "zip_code": "8302"
    },
    {
        "id": "1468",
        "province_id": "74",
        "name": "Bayabas",
        "zip_code": "8303"
    },
    {
        "id": "1469",
        "province_id": "74",
        "name": "Cagwait",
        "zip_code": "8304"
    },
    {
        "id": "1470",
        "province_id": "74",
        "name": "San Agustin",
        "zip_code": "8305"
    },
    {
        "id": "1471",
        "province_id": "74",
        "name": "Marihatag",
        "zip_code": "8306"
    },
    {
        "id": "1472",
        "province_id": "74",
        "name": "Lianga",
        "zip_code": "8307"
    },
    {
        "id": "1473",
        "province_id": "74",
        "name": "Tagbina",
        "zip_code": "8308"
    },
    {
        "id": "1474",
        "province_id": "74",
        "name": "Barobo",
        "zip_code": "8309"
    },
    {
        "id": "1475",
        "province_id": "74",
        "name": "Hinatuan",
        "zip_code": "8310"
    },
    {
        "id": "1476",
        "province_id": "74",
        "name": "Bislig",
        "zip_code": "8311"
    },
    {
        "id": "1477",
        "province_id": "74",
        "name": "Lingig",
        "zip_code": "8312"
    },
    {
        "id": "1478",
        "province_id": "74",
        "name": "Cortez",
        "zip_code": "8313"
    },
    {
        "id": "1479",
        "province_id": "74",
        "name": "Lanuza",
        "zip_code": "8314"
    },
    {
        "id": "1480",
        "province_id": "74",
        "name": "Carmen",
        "zip_code": "8315"
    },
    {
        "id": "1481",
        "province_id": "74",
        "name": "Madrid",
        "zip_code": "8316"
    },
    {
        "id": "1482",
        "province_id": "74",
        "name": "Cantillan",
        "zip_code": "8317"
    },
    {
        "id": "1483",
        "province_id": "74",
        "name": "Carrascal",
        "zip_code": "8318"
    },
    {
        "id": "1484",
        "province_id": "74",
        "name": "Malixi",
        "zip_code": "8319"
    },
    {
        "id": "1485",
        "province_id": "75",
        "name": "Tarlac",
        "zip_code": "2300"
    },
    {
        "id": "1486",
        "province_id": "75",
        "name": "San Miguel",
        "zip_code": "2301"
    },
    {
        "id": "1487",
        "province_id": "75",
        "name": "Gerona",
        "zip_code": "2302"
    },
    {
        "id": "1488",
        "province_id": "75",
        "name": "Sta. Ignacia",
        "zip_code": "2303"
    },
    {
        "id": "1489",
        "province_id": "75",
        "name": "Mayantoc",
        "zip_code": "2304"
    },
    {
        "id": "1490",
        "province_id": "75",
        "name": "San Clemente",
        "zip_code": "2305"
    },
    {
        "id": "1491",
        "province_id": "75",
        "name": "Camiling",
        "zip_code": "2306"
    },
    {
        "id": "1492",
        "province_id": "75",
        "name": "Paniqui",
        "zip_code": "2307"
    },
    {
        "id": "1493",
        "province_id": "75",
        "name": "Moncada",
        "zip_code": "2308"
    },
    {
        "id": "1494",
        "province_id": "75",
        "name": "San mauel",
        "zip_code": "2309"
    },
    {
        "id": "1495",
        "province_id": "75",
        "name": "Anao",
        "zip_code": "2310"
    },
    {
        "id": "1496",
        "province_id": "75",
        "name": "Ramos",
        "zip_code": "2311"
    },
    {
        "id": "1497",
        "province_id": "75",
        "name": "Pura",
        "zip_code": "2312"
    },
    {
        "id": "1498",
        "province_id": "75",
        "name": "Victoria",
        "zip_code": "2313"
    },
    {
        "id": "1499",
        "province_id": "75",
        "name": "La Paz",
        "zip_code": "2314"
    },
    {
        "id": "1500",
        "province_id": "75",
        "name": "Capas",
        "zip_code": "2315"
    },
    {
        "id": "1501",
        "province_id": "75",
        "name": "Concepcion",
        "zip_code": "2316"
    },
    {
        "id": "1502",
        "province_id": "75",
        "name": "Bamban",
        "zip_code": "2317"
    },
    {
        "id": "1503",
        "province_id": "75",
        "name": "San Jose",
        "zip_code": "2318"
    },
    {
        "id": "1504",
        "province_id": "76",
        "name": "Bongao",
        "zip_code": "7500"
    },
    {
        "id": "1505",
        "province_id": "76",
        "name": "Balimbing",
        "zip_code": "7501"
    },
    {
        "id": "1506",
        "province_id": "76",
        "name": "Tandu Bas",
        "zip_code": "7502"
    },
    {
        "id": "1507",
        "province_id": "76",
        "name": "Sapa-sapa",
        "zip_code": "7503"
    },
    {
        "id": "1508",
        "province_id": "76",
        "name": "South Ubian",
        "zip_code": "7504"
    },
    {
        "id": "1509",
        "province_id": "76",
        "name": "Simunol",
        "zip_code": "7505"
    },
    {
        "id": "1510",
        "province_id": "76",
        "name": "Sitangkai",
        "zip_code": "7506"
    },
    {
        "id": "1511",
        "province_id": "76",
        "name": "Taganak (Turtle Island)",
        "zip_code": "7507"
    },
    {
        "id": "1512",
        "province_id": "76",
        "name": "Cagayan de Sulu",
        "zip_code": "7508"
    },
    {
        "id": "1513",
        "province_id": "76",
        "name": "Languyan",
        "zip_code": "7509"
    },
    {
        "id": "1514",
        "province_id": "77",
        "name": "Olongapo City",
        "zip_code": "2200"
    },
    {
        "id": "1515",
        "province_id": "77",
        "name": "Iba",
        "zip_code": "2201"
    },
    {
        "id": "1516",
        "province_id": "77",
        "name": "Botolan",
        "zip_code": "2202"
    },
    {
        "id": "1517",
        "province_id": "77",
        "name": "Cabangan",
        "zip_code": "2203"
    },
    {
        "id": "1518",
        "province_id": "77",
        "name": "San Felipe",
        "zip_code": "2204"
    },
    {
        "id": "1519",
        "province_id": "77",
        "name": "San Narciso",
        "zip_code": "2205"
    },
    {
        "id": "1520",
        "province_id": "77",
        "name": "San Antonio",
        "zip_code": "2206"
    },
    {
        "id": "1521",
        "province_id": "77",
        "name": "San Marcelino",
        "zip_code": "2207"
    },
    {
        "id": "1522",
        "province_id": "77",
        "name": "Castillejos",
        "zip_code": "2208"
    },
    {
        "id": "1523",
        "province_id": "77",
        "name": "Subic",
        "zip_code": "2209"
    },
    {
        "id": "1524",
        "province_id": "77",
        "name": "Palauig",
        "zip_code": "2210"
    },
    {
        "id": "1525",
        "province_id": "77",
        "name": "Masinloc",
        "zip_code": "2211"
    },
    {
        "id": "1526",
        "province_id": "77",
        "name": "Candelaria",
        "zip_code": "2212"
    },
    {
        "id": "1527",
        "province_id": "77",
        "name": "Sta. Cruz",
        "zip_code": "2213"
    },
    {
        "id": "1528",
        "province_id": "78",
        "name": "Dipolog City",
        "zip_code": "7100"
    },
    {
        "id": "1529",
        "province_id": "78",
        "name": "Dapitan City",
        "zip_code": "7101"
    },
    {
        "id": "1530",
        "province_id": "78",
        "name": "Roxas",
        "zip_code": "7102"
    },
    {
        "id": "1531",
        "province_id": "78",
        "name": "Sibutad",
        "zip_code": "7103"
    },
    {
        "id": "1532",
        "province_id": "78",
        "name": "Rizal",
        "zip_code": "7104"
    },
    {
        "id": "1533",
        "province_id": "78",
        "name": "Pinan",
        "zip_code": "7105"
    },
    {
        "id": "1534",
        "province_id": "78",
        "name": "Polanco",
        "zip_code": "7106"
    },
    {
        "id": "1535",
        "province_id": "78",
        "name": "Mutia",
        "zip_code": "7107"
    },
    {
        "id": "1536",
        "province_id": "78",
        "name": "Sergio Osmena",
        "zip_code": "7108"
    },
    {
        "id": "1537",
        "province_id": "78",
        "name": "Katipunan",
        "zip_code": "7109"
    },
    {
        "id": "1538",
        "province_id": "78",
        "name": "Manukan",
        "zip_code": "7110"
    },
    {
        "id": "1539",
        "province_id": "78",
        "name": "Jose Dalman (Ponot)",
        "zip_code": "7111"
    },
    {
        "id": "1540",
        "province_id": "78",
        "name": "Sindangan (Leon B. Postigo)",
        "zip_code": "7112"
    },
    {
        "id": "1541",
        "province_id": "78",
        "name": "Siayan",
        "zip_code": "7113"
    },
    {
        "id": "1542",
        "province_id": "78",
        "name": "Salug",
        "zip_code": "7114"
    },
    {
        "id": "1543",
        "province_id": "78",
        "name": "Liloy",
        "zip_code": "7115"
    },
    {
        "id": "1544",
        "province_id": "78",
        "name": "Tampilisan",
        "zip_code": "7116"
    },
    {
        "id": "1545",
        "province_id": "78",
        "name": "Labason",
        "zip_code": "7117"
    },
    {
        "id": "1546",
        "province_id": "78",
        "name": "Gutalac",
        "zip_code": "7118"
    },
    {
        "id": "1547",
        "province_id": "78",
        "name": "La Libertad",
        "zip_code": "7119"
    },
    {
        "id": "1548",
        "province_id": "78",
        "name": "Siocon",
        "zip_code": "7120"
    },
    {
        "id": "1549",
        "province_id": "78",
        "name": "Siraway",
        "zip_code": "7121"
    },
    {
        "id": "1550",
        "province_id": "78",
        "name": "Sibuco",
        "zip_code": "7122"
    },
    {
        "id": "1551",
        "province_id": "78",
        "name": "Baliguian",
        "zip_code": "7123"
    },
    {
        "id": "1552",
        "province_id": "78",
        "name": "Kalawit",
        "zip_code": "7124"
    },
    {
        "id": "1553",
        "province_id": "81",
        "name": "Makati City",
        "zip_code": "1224"
    },
    {
        "id": "1554",
        "province_id": "81",
        "name": "Mandaluyong City",
        "zip_code": "1552"
    },
    {
        "id": "1555",
        "province_id": "81",
        "name": "Manila City",
        "zip_code": "1004"
    },
    {
        "id": "1556",
        "province_id": "46",
        "name": "Boac",
        "zip_code": "4900"
    },
    {
        "id": "1557",
        "province_id": "81",
        "name": "Muntinlupa City",
        "zip_code": "1781"
    },
    {
        "id": "1558",
        "province_id": "61",
        "name": "Infanta",
        "zip_code": "4336"
    },
    {
        "id": "1559",
        "province_id": "81",
        "name": "Quezon City",
        "zip_code": "1101"
    },
    {
        "id": "1560",
        "province_id": "81",
        "name": "Paranaque City",
        "zip_code": "1702"
    },
    {
        "id": "1561",
        "province_id": "81",
        "name": "Pasay City",
        "zip_code": "1308"
    },
    {
        "id": "1562",
        "province_id": "81",
        "name": "Pasig City",
        "zip_code": "1600"
    },
    {
        "id": "1563",
        "province_id": "81",
        "name": "Taguig City",
        "zip_code": "1634"
    },
    {
        "id": "1564",
        "province_id": "81",
        "name": "Caloocan City",
        "zip_code": "1405"
    },
    {
        "id": "1565",
        "province_id": "81",
        "name": "Marikina City",
        "zip_code": "1810"
    },
    {
        "id": "1566",
        "province_id": "81",
        "name": "San Juan City",
        "zip_code": "1502"
    },
    {
        "id": "1567",
        "province_id": "81",
        "name": "Las Pi√±as City",
        "zip_code": "1742"
    },
    {
        "id": "1568",
        "province_id": "81",
        "name": "Navotas City",
        "zip_code": "1485"
    },
    {
        "id": "1569",
        "province_id": "81",
        "name": "Malabon CIty",
        "zip_code": "1470"
    },
    {
        "id": "1570",
        "province_id": "81",
        "name": "Valenzuela City",
        "zip_code": "1440"
    },
    {
        "id": "1571",
        "province_id": "81",
        "name": "Pateros City",
        "zip_code": "1620"
    },
    {
        "id": "1572",
        "province_id": "18",
        "name": "Pe√±ablanca",
        "zip_code": "3502"
    },
    {
        "id": "1573",
        "province_id": "57",
        "name": "Roxas",
        "zip_code": "5212"
    },
    {
        "id": "1574",
        "province_id": "70",
        "name": "Maasin City",
        "zip_code": "6600"
    },
    {
        "id": "1575",
        "province_id": "83",
        "name": "Calbayog City",
        "zip_code": "6710"
    },
    {
        "id": "1576",
        "province_id": "83",
        "name": "Catbalogan City",
        "zip_code": "6700"
    },
    {
        "id": "1577",
        "province_id": "70",
        "name": "Sogod",
        "zip_code": "6606"
    },
    {
        "id": "1578",
        "province_id": "79",
        "name": "Pagadian City",
        "zip_code": "7016"
    },
    {
        "id": "1579",
        "province_id": "80",
        "name": "Ipil",
        "zip_code": "7001"
    },
    {
        "id": "1580",
        "province_id": "79",
        "name": "Zamboanga City",
        "zip_code": "7000"
    },
    {
        "id": "1581",
        "province_id": "71",
        "name": "Tacurong",
        "zip_code": "9800"
    },
    {
        "id": "1658",
        "province_id": "27",
        "name": "Kidapawan City",
        "zip_code": "9400"
    },
    {
        "id": "1659",
        "province_id": "27",
        "name": "Makilala",
        "zip_code": "9401"
    },
    {
        "id": "1660",
        "province_id": "27",
        "name": "M'lang",
        "zip_code": "9402"
    },
    {
        "id": "1661",
        "province_id": "27",
        "name": "Tulunan",
        "zip_code": "9403"
    },
    {
        "id": "1662",
        "province_id": "27",
        "name": "Magpet",
        "zip_code": "9404"
    },
    {
        "id": "1663",
        "province_id": "27",
        "name": "Pres. Roxas",
        "zip_code": "9405"
    },
    {
        "id": "1664",
        "province_id": "27",
        "name": "Matalam",
        "zip_code": ""
    },
    {
        "id": "1665",
        "province_id": "27",
        "name": "Kabacan",
        "zip_code": "9407"
    },
    {
        "id": "1666",
        "province_id": "27",
        "name": "Carmen",
        "zip_code": "9408"
    },
    {
        "id": "1667",
        "province_id": "27",
        "name": "Pikit",
        "zip_code": "9409"
    },
    {
        "id": "1668",
        "province_id": "27",
        "name": "Midsayap",
        "zip_code": "9410"
    },
    {
        "id": "1669",
        "province_id": "27",
        "name": "Libungan",
        "zip_code": "9411"
    },
    {
        "id": "1670",
        "province_id": "27",
        "name": "Pigkawayan",
        "zip_code": "9412"
    },
    {
        "id": "1671",
        "province_id": "27",
        "name": "Alamada",
        "zip_code": "9413"
    },
    {
        "id": "1672",
        "province_id": "27",
        "name": "Antipas",
        "zip_code": "9414"
    },
    {
        "id": "1673",
        "province_id": "27",
        "name": " Aleosan",
        "zip_code": "9415"
    },
    {
        "id": "1674",
        "province_id": "27",
        "name": "Banisilan",
        "zip_code": "9416"
    },
    {
        "id": "1675",
        "province_id": "27",
        "name": " Arakan",
        "zip_code": "9417"
    },
    {
        "id": "1715",
        "province_id": "79",
        "name": "Aurora",
        "zip_code": "7020"
    },
    {
        "id": "1716",
        "province_id": "51",
        "name": "Don Salvador",
        "zip_code": "6124"
    }
]
